<?xml version="1.0" encoding="UTF-8"?>
<gpx xmlns:xsi="http://www.w3.org/2001/XMLSchema-instance" xsi:schemaLocation="http://www.topografix.com/GPX/1/1 http://www.topografix.com/GPX/1/1/gpx.xsd http://www.garmin.com/xmlschemas/GpxExtensions/v3 http://www.garmin.com/xmlschemas/GpxExtensionsv3.xsd http://www.garmin.com/xmlschemas/TrackPointExtension/v1 http://www.garmin.com/xmlschemas/TrackPointExtensionv1.xsd" creator="StravaGPX" version="1.1" xmlns="http://www.topografix.com/GPX/1/1" xmlns:gpxtpx="http://www.garmin.com/xmlschemas/TrackPointExtension/v1" xmlns:gpxx="http://www.garmin.com/xmlschemas/GpxExtensions/v3">
 <metadata>
  <time>2024-06-11T22:39:15Z</time>
 </metadata>
 <trk>
  <name>Messiah 1600</name>
  <type>running</type>
  <trkseg>
   <trkpt lat="40.1533910" lon="-76.9892600">
    <ele>127.0</ele>
    <time>2024-06-11T22:39:15Z</time>
    <extensions>
     <power>0</power>
     <gpxtpx:TrackPointExtension>
      <gpxtpx:hr>127</gpxtpx:hr>
      <gpxtpx:cad>0</gpxtpx:cad>
     </gpxtpx:TrackPointExtension>
    </extensions>
   </trkpt>
   <trkpt lat="40.1533970" lon="-76.9891870">
    <ele>127.0</ele>
    <time>2024-06-11T22:39:16Z</time>
    <extensions>
     <power>0</power>
     <gpxtpx:TrackPointExtension>
      <gpxtpx:hr>126</gpxtpx:hr>
      <gpxtpx:cad>0</gpxtpx:cad>
     </gpxtpx:TrackPointExtension>
    </extensions>
   </trkpt>
   <trkpt lat="40.1534070" lon="-76.9891200">
    <ele>127.0</ele>
    <time>2024-06-11T22:39:17Z</time>
    <extensions>
     <power>0</power>
     <gpxtpx:TrackPointExtension>
      <gpxtpx:hr>127</gpxtpx:hr>
      <gpxtpx:cad>0</gpxtpx:cad>
     </gpxtpx:TrackPointExtension>
    </extensions>
   </trkpt>
   <trkpt lat="40.1534150" lon="-76.9890820">
    <ele>127.0</ele>
    <time>2024-06-11T22:39:18Z</time>
    <extensions>
     <power>0</power>
     <gpxtpx:TrackPointExtension>
      <gpxtpx:hr>128</gpxtpx:hr>
      <gpxtpx:cad>0</gpxtpx:cad>
     </gpxtpx:TrackPointExtension>
    </extensions>
   </trkpt>
   <trkpt lat="40.1534430" lon="-76.9890070">
    <ele>127.0</ele>
    <time>2024-06-11T22:39:19Z</time>
    <extensions>
     <power>0</power>
     <gpxtpx:TrackPointExtension>
      <gpxtpx:hr>129</gpxtpx:hr>
      <gpxtpx:cad>0</gpxtpx:cad>
     </gpxtpx:TrackPointExtension>
    </extensions>
   </trkpt>
   <trkpt lat="40.1534780" lon="-76.9889420">
    <ele>127.0</ele>
    <time>2024-06-11T22:39:20Z</time>
    <extensions>
     <power>0</power>
     <gpxtpx:TrackPointExtension>
      <gpxtpx:hr>131</gpxtpx:hr>
      <gpxtpx:cad>0</gpxtpx:cad>
     </gpxtpx:TrackPointExtension>
    </extensions>
   </trkpt>
   <trkpt lat="40.1534960" lon="-76.9889160">
    <ele>127.0</ele>
    <time>2024-06-11T22:39:21Z</time>
    <extensions>
     <power>0</power>
     <gpxtpx:TrackPointExtension>
      <gpxtpx:hr>132</gpxtpx:hr>
      <gpxtpx:cad>0</gpxtpx:cad>
     </gpxtpx:TrackPointExtension>
    </extensions>
   </trkpt>
   <trkpt lat="40.1535280" lon="-76.9888780">
    <ele>127.0</ele>
    <time>2024-06-11T22:39:22Z</time>
    <extensions>
     <power>0</power>
     <gpxtpx:TrackPointExtension>
      <gpxtpx:hr>134</gpxtpx:hr>
      <gpxtpx:cad>0</gpxtpx:cad>
     </gpxtpx:TrackPointExtension>
    </extensions>
   </trkpt>
   <trkpt lat="40.1535750" lon="-76.9888380">
    <ele>127.0</ele>
    <time>2024-06-11T22:39:23Z</time>
    <extensions>
     <power>0</power>
     <gpxtpx:TrackPointExtension>
      <gpxtpx:hr>136</gpxtpx:hr>
      <gpxtpx:cad>102</gpxtpx:cad>
     </gpxtpx:TrackPointExtension>
    </extensions>
   </trkpt>
   <trkpt lat="40.1536020" lon="-76.9888190">
    <ele>127.0</ele>
    <time>2024-06-11T22:39:24Z</time>
    <extensions>
     <power>565</power>
     <gpxtpx:TrackPointExtension>
      <gpxtpx:hr>138</gpxtpx:hr>
      <gpxtpx:cad>102</gpxtpx:cad>
     </gpxtpx:TrackPointExtension>
    </extensions>
   </trkpt>
   <trkpt lat="40.1536540" lon="-76.9887950">
    <ele>127.0</ele>
    <time>2024-06-11T22:39:25Z</time>
    <extensions>
     <power>573</power>
     <gpxtpx:TrackPointExtension>
      <gpxtpx:hr>140</gpxtpx:hr>
      <gpxtpx:cad>102</gpxtpx:cad>
     </gpxtpx:TrackPointExtension>
    </extensions>
   </trkpt>
   <trkpt lat="40.1537090" lon="-76.9887820">
    <ele>127.0</ele>
    <time>2024-06-11T22:39:26Z</time>
    <extensions>
     <power>539</power>
     <gpxtpx:TrackPointExtension>
      <gpxtpx:hr>143</gpxtpx:hr>
      <gpxtpx:cad>102</gpxtpx:cad>
     </gpxtpx:TrackPointExtension>
    </extensions>
   </trkpt>
   <trkpt lat="40.1537490" lon="-76.9887790">
    <ele>127.0</ele>
    <time>2024-06-11T22:39:27Z</time>
    <extensions>
     <power>539</power>
     <gpxtpx:TrackPointExtension>
      <gpxtpx:hr>144</gpxtpx:hr>
      <gpxtpx:cad>99</gpxtpx:cad>
     </gpxtpx:TrackPointExtension>
    </extensions>
   </trkpt>
   <trkpt lat="40.1538060" lon="-76.9887860">
    <ele>127.0</ele>
    <time>2024-06-11T22:39:28Z</time>
    <extensions>
     <power>546</power>
     <gpxtpx:TrackPointExtension>
      <gpxtpx:hr>147</gpxtpx:hr>
      <gpxtpx:cad>99</gpxtpx:cad>
     </gpxtpx:TrackPointExtension>
    </extensions>
   </trkpt>
   <trkpt lat="40.1538500" lon="-76.9887990">
    <ele>127.0</ele>
    <time>2024-06-11T22:39:29Z</time>
    <extensions>
     <power>567</power>
     <gpxtpx:TrackPointExtension>
      <gpxtpx:hr>149</gpxtpx:hr>
      <gpxtpx:cad>97</gpxtpx:cad>
     </gpxtpx:TrackPointExtension>
    </extensions>
   </trkpt>
   <trkpt lat="40.1538950" lon="-76.9888220">
    <ele>127.0</ele>
    <time>2024-06-11T22:39:30Z</time>
    <extensions>
     <power>581</power>
     <gpxtpx:TrackPointExtension>
      <gpxtpx:hr>151</gpxtpx:hr>
      <gpxtpx:cad>97</gpxtpx:cad>
     </gpxtpx:TrackPointExtension>
    </extensions>
   </trkpt>
   <trkpt lat="40.1539410" lon="-76.9888550">
    <ele>127.0</ele>
    <time>2024-06-11T22:39:31Z</time>
    <extensions>
     <power>584</power>
     <gpxtpx:TrackPointExtension>
      <gpxtpx:hr>153</gpxtpx:hr>
      <gpxtpx:cad>97</gpxtpx:cad>
     </gpxtpx:TrackPointExtension>
    </extensions>
   </trkpt>
   <trkpt lat="40.1539690" lon="-76.9888830">
    <ele>127.0</ele>
    <time>2024-06-11T22:39:32Z</time>
    <extensions>
     <power>576</power>
     <gpxtpx:TrackPointExtension>
      <gpxtpx:hr>155</gpxtpx:hr>
      <gpxtpx:cad>97</gpxtpx:cad>
     </gpxtpx:TrackPointExtension>
    </extensions>
   </trkpt>
   <trkpt lat="40.1540120" lon="-76.9889370">
    <ele>127.0</ele>
    <time>2024-06-11T22:39:33Z</time>
    <extensions>
     <power>565</power>
     <gpxtpx:TrackPointExtension>
      <gpxtpx:hr>156</gpxtpx:hr>
      <gpxtpx:cad>97</gpxtpx:cad>
     </gpxtpx:TrackPointExtension>
    </extensions>
   </trkpt>
   <trkpt lat="40.1540380" lon="-76.9889790">
    <ele>127.0</ele>
    <time>2024-06-11T22:39:34Z</time>
    <extensions>
     <power>562</power>
     <gpxtpx:TrackPointExtension>
      <gpxtpx:hr>158</gpxtpx:hr>
      <gpxtpx:cad>97</gpxtpx:cad>
     </gpxtpx:TrackPointExtension>
    </extensions>
   </trkpt>
   <trkpt lat="40.1540560" lon="-76.9890190">
    <ele>127.0</ele>
    <time>2024-06-11T22:39:35Z</time>
    <extensions>
     <power>558</power>
     <gpxtpx:TrackPointExtension>
      <gpxtpx:hr>159</gpxtpx:hr>
      <gpxtpx:cad>97</gpxtpx:cad>
     </gpxtpx:TrackPointExtension>
    </extensions>
   </trkpt>
   <trkpt lat="40.1540820" lon="-76.9890960">
    <ele>127.0</ele>
    <time>2024-06-11T22:39:36Z</time>
    <extensions>
     <power>558</power>
     <gpxtpx:TrackPointExtension>
      <gpxtpx:hr>160</gpxtpx:hr>
      <gpxtpx:cad>96</gpxtpx:cad>
     </gpxtpx:TrackPointExtension>
    </extensions>
   </trkpt>
   <trkpt lat="40.1540890" lon="-76.9891330">
    <ele>127.0</ele>
    <time>2024-06-11T22:39:37Z</time>
    <extensions>
     <power>553</power>
     <gpxtpx:TrackPointExtension>
      <gpxtpx:hr>162</gpxtpx:hr>
      <gpxtpx:cad>96</gpxtpx:cad>
     </gpxtpx:TrackPointExtension>
    </extensions>
   </trkpt>
   <trkpt lat="40.1540990" lon="-76.9892210">
    <ele>127.0</ele>
    <time>2024-06-11T22:39:38Z</time>
    <extensions>
     <power>549</power>
     <gpxtpx:TrackPointExtension>
      <gpxtpx:hr>162</gpxtpx:hr>
      <gpxtpx:cad>96</gpxtpx:cad>
     </gpxtpx:TrackPointExtension>
    </extensions>
   </trkpt>
   <trkpt lat="40.1540990" lon="-76.9892670">
    <ele>127.0</ele>
    <time>2024-06-11T22:39:39Z</time>
    <extensions>
     <power>543</power>
     <gpxtpx:TrackPointExtension>
      <gpxtpx:hr>164</gpxtpx:hr>
      <gpxtpx:cad>96</gpxtpx:cad>
     </gpxtpx:TrackPointExtension>
    </extensions>
   </trkpt>
   <trkpt lat="40.1540940" lon="-76.9893400">
    <ele>127.0</ele>
    <time>2024-06-11T22:39:40Z</time>
    <extensions>
     <power>536</power>
     <gpxtpx:TrackPointExtension>
      <gpxtpx:hr>164</gpxtpx:hr>
      <gpxtpx:cad>96</gpxtpx:cad>
     </gpxtpx:TrackPointExtension>
    </extensions>
   </trkpt>
   <trkpt lat="40.1540900" lon="-76.9894020">
    <ele>127.0</ele>
    <time>2024-06-11T22:39:41Z</time>
    <extensions>
     <power>531</power>
     <gpxtpx:TrackPointExtension>
      <gpxtpx:hr>165</gpxtpx:hr>
      <gpxtpx:cad>96</gpxtpx:cad>
     </gpxtpx:TrackPointExtension>
    </extensions>
   </trkpt>
   <trkpt lat="40.1540860" lon="-76.9894630">
    <ele>127.0</ele>
    <time>2024-06-11T22:39:42Z</time>
    <extensions>
     <power>527</power>
     <gpxtpx:TrackPointExtension>
      <gpxtpx:hr>165</gpxtpx:hr>
      <gpxtpx:cad>95</gpxtpx:cad>
     </gpxtpx:TrackPointExtension>
    </extensions>
   </trkpt>
   <trkpt lat="40.1540820" lon="-76.9895350">
    <ele>127.0</ele>
    <time>2024-06-11T22:39:43Z</time>
    <extensions>
     <power>520</power>
     <gpxtpx:TrackPointExtension>
      <gpxtpx:hr>166</gpxtpx:hr>
      <gpxtpx:cad>95</gpxtpx:cad>
     </gpxtpx:TrackPointExtension>
    </extensions>
   </trkpt>
   <trkpt lat="40.1540780" lon="-76.9895850">
    <ele>127.0</ele>
    <time>2024-06-11T22:39:44Z</time>
    <extensions>
     <power>521</power>
     <gpxtpx:TrackPointExtension>
      <gpxtpx:hr>167</gpxtpx:hr>
      <gpxtpx:cad>94</gpxtpx:cad>
     </gpxtpx:TrackPointExtension>
    </extensions>
   </trkpt>
   <trkpt lat="40.1540730" lon="-76.9896600">
    <ele>127.0</ele>
    <time>2024-06-11T22:39:45Z</time>
    <extensions>
     <power>519</power>
     <gpxtpx:TrackPointExtension>
      <gpxtpx:hr>167</gpxtpx:hr>
      <gpxtpx:cad>94</gpxtpx:cad>
     </gpxtpx:TrackPointExtension>
    </extensions>
   </trkpt>
   <trkpt lat="40.1540700" lon="-76.9897050">
    <ele>127.0</ele>
    <time>2024-06-11T22:39:46Z</time>
    <extensions>
     <power>521</power>
     <gpxtpx:TrackPointExtension>
      <gpxtpx:hr>168</gpxtpx:hr>
      <gpxtpx:cad>93</gpxtpx:cad>
     </gpxtpx:TrackPointExtension>
    </extensions>
   </trkpt>
   <trkpt lat="40.1540650" lon="-76.9897850">
    <ele>127.0</ele>
    <time>2024-06-11T22:39:47Z</time>
    <extensions>
     <power>520</power>
     <gpxtpx:TrackPointExtension>
      <gpxtpx:hr>168</gpxtpx:hr>
      <gpxtpx:cad>93</gpxtpx:cad>
     </gpxtpx:TrackPointExtension>
    </extensions>
   </trkpt>
   <trkpt lat="40.1540620" lon="-76.9898250">
    <ele>127.0</ele>
    <time>2024-06-11T22:39:48Z</time>
    <extensions>
     <power>520</power>
     <gpxtpx:TrackPointExtension>
      <gpxtpx:hr>168</gpxtpx:hr>
      <gpxtpx:cad>91</gpxtpx:cad>
     </gpxtpx:TrackPointExtension>
    </extensions>
   </trkpt>
   <trkpt lat="40.1540570" lon="-76.9899060">
    <ele>127.0</ele>
    <time>2024-06-11T22:39:49Z</time>
    <extensions>
     <power>522</power>
     <gpxtpx:TrackPointExtension>
      <gpxtpx:hr>169</gpxtpx:hr>
      <gpxtpx:cad>91</gpxtpx:cad>
     </gpxtpx:TrackPointExtension>
    </extensions>
   </trkpt>
   <trkpt lat="40.1540540" lon="-76.9899520">
    <ele>127.0</ele>
    <time>2024-06-11T22:39:50Z</time>
    <extensions>
     <power>516</power>
     <gpxtpx:TrackPointExtension>
      <gpxtpx:hr>169</gpxtpx:hr>
      <gpxtpx:cad>91</gpxtpx:cad>
     </gpxtpx:TrackPointExtension>
    </extensions>
   </trkpt>
   <trkpt lat="40.1540490" lon="-76.9900280">
    <ele>127.0</ele>
    <time>2024-06-11T22:39:51Z</time>
    <extensions>
     <power>510</power>
     <gpxtpx:TrackPointExtension>
      <gpxtpx:hr>170</gpxtpx:hr>
      <gpxtpx:cad>93</gpxtpx:cad>
     </gpxtpx:TrackPointExtension>
    </extensions>
   </trkpt>
   <trkpt lat="40.1540450" lon="-76.9900790">
    <ele>127.0</ele>
    <time>2024-06-11T22:39:52Z</time>
    <extensions>
     <power>506</power>
     <gpxtpx:TrackPointExtension>
      <gpxtpx:hr>170</gpxtpx:hr>
      <gpxtpx:cad>93</gpxtpx:cad>
     </gpxtpx:TrackPointExtension>
    </extensions>
   </trkpt>
   <trkpt lat="40.1540410" lon="-76.9901440">
    <ele>127.0</ele>
    <time>2024-06-11T22:39:53Z</time>
    <extensions>
     <power>503</power>
     <gpxtpx:TrackPointExtension>
      <gpxtpx:hr>170</gpxtpx:hr>
      <gpxtpx:cad>92</gpxtpx:cad>
     </gpxtpx:TrackPointExtension>
    </extensions>
   </trkpt>
   <trkpt lat="40.1540360" lon="-76.9902030">
    <ele>127.0</ele>
    <time>2024-06-11T22:39:54Z</time>
    <extensions>
     <power>502</power>
     <gpxtpx:TrackPointExtension>
      <gpxtpx:hr>171</gpxtpx:hr>
      <gpxtpx:cad>92</gpxtpx:cad>
     </gpxtpx:TrackPointExtension>
    </extensions>
   </trkpt>
   <trkpt lat="40.1540290" lon="-76.9902490">
    <ele>127.0</ele>
    <time>2024-06-11T22:39:55Z</time>
    <extensions>
     <power>502</power>
     <gpxtpx:TrackPointExtension>
      <gpxtpx:hr>171</gpxtpx:hr>
      <gpxtpx:cad>92</gpxtpx:cad>
     </gpxtpx:TrackPointExtension>
    </extensions>
   </trkpt>
   <trkpt lat="40.1540130" lon="-76.9903120">
    <ele>127.0</ele>
    <time>2024-06-11T22:39:56Z</time>
    <extensions>
     <power>500</power>
     <gpxtpx:TrackPointExtension>
      <gpxtpx:hr>171</gpxtpx:hr>
      <gpxtpx:cad>92</gpxtpx:cad>
     </gpxtpx:TrackPointExtension>
    </extensions>
   </trkpt>
   <trkpt lat="40.1540010" lon="-76.9903470">
    <ele>127.0</ele>
    <time>2024-06-11T22:39:57Z</time>
    <extensions>
     <power>500</power>
     <gpxtpx:TrackPointExtension>
      <gpxtpx:hr>170</gpxtpx:hr>
      <gpxtpx:cad>94</gpxtpx:cad>
     </gpxtpx:TrackPointExtension>
    </extensions>
   </trkpt>
   <trkpt lat="40.1539720" lon="-76.9904090">
    <ele>127.0</ele>
    <time>2024-06-11T22:39:58Z</time>
    <extensions>
     <power>499</power>
     <gpxtpx:TrackPointExtension>
      <gpxtpx:hr>171</gpxtpx:hr>
      <gpxtpx:cad>94</gpxtpx:cad>
     </gpxtpx:TrackPointExtension>
    </extensions>
   </trkpt>
   <trkpt lat="40.1539610" lon="-76.9904270">
    <ele>127.0</ele>
    <time>2024-06-11T22:39:59Z</time>
    <extensions>
     <power>498</power>
     <gpxtpx:TrackPointExtension>
      <gpxtpx:hr>171</gpxtpx:hr>
      <gpxtpx:cad>93</gpxtpx:cad>
     </gpxtpx:TrackPointExtension>
    </extensions>
   </trkpt>
   <trkpt lat="40.1539250" lon="-76.9904760">
    <ele>127.0</ele>
    <time>2024-06-11T22:40:00Z</time>
    <extensions>
     <power>496</power>
     <gpxtpx:TrackPointExtension>
      <gpxtpx:hr>172</gpxtpx:hr>
      <gpxtpx:cad>93</gpxtpx:cad>
     </gpxtpx:TrackPointExtension>
    </extensions>
   </trkpt>
   <trkpt lat="40.1538910" lon="-76.9905120">
    <ele>127.0</ele>
    <time>2024-06-11T22:40:01Z</time>
    <extensions>
     <power>490</power>
     <gpxtpx:TrackPointExtension>
      <gpxtpx:hr>172</gpxtpx:hr>
      <gpxtpx:cad>93</gpxtpx:cad>
     </gpxtpx:TrackPointExtension>
    </extensions>
   </trkpt>
   <trkpt lat="40.1538530" lon="-76.9905430">
    <ele>127.0</ele>
    <time>2024-06-11T22:40:02Z</time>
    <extensions>
     <power>485</power>
     <gpxtpx:TrackPointExtension>
      <gpxtpx:hr>172</gpxtpx:hr>
      <gpxtpx:cad>94</gpxtpx:cad>
     </gpxtpx:TrackPointExtension>
    </extensions>
   </trkpt>
   <trkpt lat="40.1538140" lon="-76.9905660">
    <ele>127.0</ele>
    <time>2024-06-11T22:40:03Z</time>
    <extensions>
     <power>477</power>
     <gpxtpx:TrackPointExtension>
      <gpxtpx:hr>172</gpxtpx:hr>
      <gpxtpx:cad>94</gpxtpx:cad>
     </gpxtpx:TrackPointExtension>
    </extensions>
   </trkpt>
   <trkpt lat="40.1537680" lon="-76.9905850">
    <ele>127.0</ele>
    <time>2024-06-11T22:40:04Z</time>
    <extensions>
     <power>474</power>
     <gpxtpx:TrackPointExtension>
      <gpxtpx:hr>172</gpxtpx:hr>
      <gpxtpx:cad>94</gpxtpx:cad>
     </gpxtpx:TrackPointExtension>
    </extensions>
   </trkpt>
   <trkpt lat="40.1537250" lon="-76.9905950">
    <ele>127.0</ele>
    <time>2024-06-11T22:40:05Z</time>
    <extensions>
     <power>472</power>
     <gpxtpx:TrackPointExtension>
      <gpxtpx:hr>173</gpxtpx:hr>
      <gpxtpx:cad>94</gpxtpx:cad>
     </gpxtpx:TrackPointExtension>
    </extensions>
   </trkpt>
   <trkpt lat="40.1536780" lon="-76.9905970">
    <ele>127.0</ele>
    <time>2024-06-11T22:40:06Z</time>
    <extensions>
     <power>475</power>
     <gpxtpx:TrackPointExtension>
      <gpxtpx:hr>173</gpxtpx:hr>
      <gpxtpx:cad>93</gpxtpx:cad>
     </gpxtpx:TrackPointExtension>
    </extensions>
   </trkpt>
   <trkpt lat="40.1536340" lon="-76.9905920">
    <ele>127.0</ele>
    <time>2024-06-11T22:40:07Z</time>
    <extensions>
     <power>485</power>
     <gpxtpx:TrackPointExtension>
      <gpxtpx:hr>173</gpxtpx:hr>
      <gpxtpx:cad>91</gpxtpx:cad>
     </gpxtpx:TrackPointExtension>
    </extensions>
   </trkpt>
   <trkpt lat="40.1535880" lon="-76.9905780">
    <ele>127.0</ele>
    <time>2024-06-11T22:40:08Z</time>
    <extensions>
     <power>492</power>
     <gpxtpx:TrackPointExtension>
      <gpxtpx:hr>173</gpxtpx:hr>
      <gpxtpx:cad>91</gpxtpx:cad>
     </gpxtpx:TrackPointExtension>
    </extensions>
   </trkpt>
   <trkpt lat="40.1535450" lon="-76.9905580">
    <ele>127.0</ele>
    <time>2024-06-11T22:40:09Z</time>
    <extensions>
     <power>494</power>
     <gpxtpx:TrackPointExtension>
      <gpxtpx:hr>173</gpxtpx:hr>
      <gpxtpx:cad>91</gpxtpx:cad>
     </gpxtpx:TrackPointExtension>
    </extensions>
   </trkpt>
   <trkpt lat="40.1535110" lon="-76.9905360">
    <ele>127.0</ele>
    <time>2024-06-11T22:40:10Z</time>
    <extensions>
     <power>488</power>
     <gpxtpx:TrackPointExtension>
      <gpxtpx:hr>174</gpxtpx:hr>
      <gpxtpx:cad>93</gpxtpx:cad>
     </gpxtpx:TrackPointExtension>
    </extensions>
   </trkpt>
   <trkpt lat="40.1534660" lon="-76.9904950">
    <ele>127.0</ele>
    <time>2024-06-11T22:40:11Z</time>
    <extensions>
     <power>484</power>
     <gpxtpx:TrackPointExtension>
      <gpxtpx:hr>174</gpxtpx:hr>
      <gpxtpx:cad>94</gpxtpx:cad>
     </gpxtpx:TrackPointExtension>
    </extensions>
   </trkpt>
   <trkpt lat="40.1534440" lon="-76.9904700">
    <ele>127.0</ele>
    <time>2024-06-11T22:40:12Z</time>
    <extensions>
     <power>476</power>
     <gpxtpx:TrackPointExtension>
      <gpxtpx:hr>174</gpxtpx:hr>
      <gpxtpx:cad>94</gpxtpx:cad>
     </gpxtpx:TrackPointExtension>
    </extensions>
   </trkpt>
   <trkpt lat="40.1534110" lon="-76.9904220">
    <ele>127.0</ele>
    <time>2024-06-11T22:40:13Z</time>
    <extensions>
     <power>471</power>
     <gpxtpx:TrackPointExtension>
      <gpxtpx:hr>174</gpxtpx:hr>
      <gpxtpx:cad>94</gpxtpx:cad>
     </gpxtpx:TrackPointExtension>
    </extensions>
   </trkpt>
   <trkpt lat="40.1533900" lon="-76.9903850">
    <ele>127.0</ele>
    <time>2024-06-11T22:40:14Z</time>
    <extensions>
     <power>467</power>
     <gpxtpx:TrackPointExtension>
      <gpxtpx:hr>174</gpxtpx:hr>
      <gpxtpx:cad>93</gpxtpx:cad>
     </gpxtpx:TrackPointExtension>
    </extensions>
   </trkpt>
   <trkpt lat="40.1533690" lon="-76.9903360">
    <ele>127.0</ele>
    <time>2024-06-11T22:40:15Z</time>
    <extensions>
     <power>468</power>
     <gpxtpx:TrackPointExtension>
      <gpxtpx:hr>174</gpxtpx:hr>
      <gpxtpx:cad>93</gpxtpx:cad>
     </gpxtpx:TrackPointExtension>
    </extensions>
   </trkpt>
   <trkpt lat="40.1533560" lon="-76.9902940">
    <ele>127.0</ele>
    <time>2024-06-11T22:40:16Z</time>
    <extensions>
     <power>465</power>
     <gpxtpx:TrackPointExtension>
      <gpxtpx:hr>174</gpxtpx:hr>
      <gpxtpx:cad>93</gpxtpx:cad>
     </gpxtpx:TrackPointExtension>
    </extensions>
   </trkpt>
   <trkpt lat="40.1533420" lon="-76.9902290">
    <ele>127.0</ele>
    <time>2024-06-11T22:40:17Z</time>
    <extensions>
     <power>463</power>
     <gpxtpx:TrackPointExtension>
      <gpxtpx:hr>174</gpxtpx:hr>
      <gpxtpx:cad>93</gpxtpx:cad>
     </gpxtpx:TrackPointExtension>
    </extensions>
   </trkpt>
   <trkpt lat="40.1533360" lon="-76.9901710">
    <ele>127.0</ele>
    <time>2024-06-11T22:40:18Z</time>
    <extensions>
     <power>463</power>
     <gpxtpx:TrackPointExtension>
      <gpxtpx:hr>174</gpxtpx:hr>
      <gpxtpx:cad>93</gpxtpx:cad>
     </gpxtpx:TrackPointExtension>
    </extensions>
   </trkpt>
   <trkpt lat="40.1533350" lon="-76.9900990">
    <ele>127.0</ele>
    <time>2024-06-11T22:40:19Z</time>
    <extensions>
     <power>465</power>
     <gpxtpx:TrackPointExtension>
      <gpxtpx:hr>174</gpxtpx:hr>
      <gpxtpx:cad>92</gpxtpx:cad>
     </gpxtpx:TrackPointExtension>
    </extensions>
   </trkpt>
   <trkpt lat="40.1533390" lon="-76.9900460">
    <ele>127.0</ele>
    <time>2024-06-11T22:40:20Z</time>
    <extensions>
     <power>468</power>
     <gpxtpx:TrackPointExtension>
      <gpxtpx:hr>175</gpxtpx:hr>
      <gpxtpx:cad>92</gpxtpx:cad>
     </gpxtpx:TrackPointExtension>
    </extensions>
   </trkpt>
   <trkpt lat="40.1533430" lon="-76.9899820">
    <ele>127.0</ele>
    <time>2024-06-11T22:40:21Z</time>
    <extensions>
     <power>473</power>
     <gpxtpx:TrackPointExtension>
      <gpxtpx:hr>174</gpxtpx:hr>
      <gpxtpx:cad>92</gpxtpx:cad>
     </gpxtpx:TrackPointExtension>
    </extensions>
   </trkpt>
   <trkpt lat="40.1533480" lon="-76.9899150">
    <ele>127.0</ele>
    <time>2024-06-11T22:40:22Z</time>
    <extensions>
     <power>476</power>
     <gpxtpx:TrackPointExtension>
      <gpxtpx:hr>175</gpxtpx:hr>
      <gpxtpx:cad>90</gpxtpx:cad>
     </gpxtpx:TrackPointExtension>
    </extensions>
   </trkpt>
   <trkpt lat="40.1533520" lon="-76.9898550">
    <ele>127.0</ele>
    <time>2024-06-11T22:40:23Z</time>
    <extensions>
     <power>477</power>
     <gpxtpx:TrackPointExtension>
      <gpxtpx:hr>174</gpxtpx:hr>
      <gpxtpx:cad>90</gpxtpx:cad>
     </gpxtpx:TrackPointExtension>
    </extensions>
   </trkpt>
   <trkpt lat="40.1533560" lon="-76.9897820">
    <ele>127.0</ele>
    <time>2024-06-11T22:40:24Z</time>
    <extensions>
     <power>478</power>
     <gpxtpx:TrackPointExtension>
      <gpxtpx:hr>174</gpxtpx:hr>
      <gpxtpx:cad>90</gpxtpx:cad>
     </gpxtpx:TrackPointExtension>
    </extensions>
   </trkpt>
   <trkpt lat="40.1533600" lon="-76.9897290">
    <ele>127.0</ele>
    <time>2024-06-11T22:40:25Z</time>
    <extensions>
     <power>477</power>
     <gpxtpx:TrackPointExtension>
      <gpxtpx:hr>175</gpxtpx:hr>
      <gpxtpx:cad>90</gpxtpx:cad>
     </gpxtpx:TrackPointExtension>
    </extensions>
   </trkpt>
   <trkpt lat="40.1533650" lon="-76.9896560">
    <ele>127.0</ele>
    <time>2024-06-11T22:40:26Z</time>
    <extensions>
     <power>479</power>
     <gpxtpx:TrackPointExtension>
      <gpxtpx:hr>175</gpxtpx:hr>
      <gpxtpx:cad>90</gpxtpx:cad>
     </gpxtpx:TrackPointExtension>
    </extensions>
   </trkpt>
   <trkpt lat="40.1533680" lon="-76.9896010">
    <ele>127.0</ele>
    <time>2024-06-11T22:40:27Z</time>
    <extensions>
     <power>482</power>
     <gpxtpx:TrackPointExtension>
      <gpxtpx:hr>175</gpxtpx:hr>
      <gpxtpx:cad>90</gpxtpx:cad>
     </gpxtpx:TrackPointExtension>
    </extensions>
   </trkpt>
   <trkpt lat="40.1533740" lon="-76.9895250">
    <ele>127.0</ele>
    <time>2024-06-11T22:40:28Z</time>
    <extensions>
     <power>484</power>
     <gpxtpx:TrackPointExtension>
      <gpxtpx:hr>175</gpxtpx:hr>
      <gpxtpx:cad>91</gpxtpx:cad>
     </gpxtpx:TrackPointExtension>
    </extensions>
   </trkpt>
   <trkpt lat="40.1533760" lon="-76.9894860">
    <ele>127.0</ele>
    <time>2024-06-11T22:40:29Z</time>
    <extensions>
     <power>489</power>
     <gpxtpx:TrackPointExtension>
      <gpxtpx:hr>175</gpxtpx:hr>
      <gpxtpx:cad>91</gpxtpx:cad>
     </gpxtpx:TrackPointExtension>
    </extensions>
   </trkpt>
   <trkpt lat="40.1533810" lon="-76.9894090">
    <ele>127.0</ele>
    <time>2024-06-11T22:40:30Z</time>
    <extensions>
     <power>491</power>
     <gpxtpx:TrackPointExtension>
      <gpxtpx:hr>175</gpxtpx:hr>
      <gpxtpx:cad>91</gpxtpx:cad>
     </gpxtpx:TrackPointExtension>
    </extensions>
   </trkpt>
   <trkpt lat="40.1533840" lon="-76.9893640">
    <ele>127.0</ele>
    <time>2024-06-11T22:40:31Z</time>
    <extensions>
     <power>490</power>
     <gpxtpx:TrackPointExtension>
      <gpxtpx:hr>175</gpxtpx:hr>
      <gpxtpx:cad>91</gpxtpx:cad>
     </gpxtpx:TrackPointExtension>
    </extensions>
   </trkpt>
   <trkpt lat="40.1533900" lon="-76.9892800">
    <ele>127.0</ele>
    <time>2024-06-11T22:40:32Z</time>
    <extensions>
     <power>489</power>
     <gpxtpx:TrackPointExtension>
      <gpxtpx:hr>175</gpxtpx:hr>
      <gpxtpx:cad>91</gpxtpx:cad>
     </gpxtpx:TrackPointExtension>
    </extensions>
   </trkpt>
   <trkpt lat="40.1533920" lon="-76.9892410">
    <ele>127.0</ele>
    <time>2024-06-11T22:40:33Z</time>
    <extensions>
     <power>486</power>
     <gpxtpx:TrackPointExtension>
      <gpxtpx:hr>175</gpxtpx:hr>
      <gpxtpx:cad>92</gpxtpx:cad>
     </gpxtpx:TrackPointExtension>
    </extensions>
   </trkpt>
   <trkpt lat="40.1533990" lon="-76.9891660">
    <ele>127.0</ele>
    <time>2024-06-11T22:40:34Z</time>
    <extensions>
     <power>484</power>
     <gpxtpx:TrackPointExtension>
      <gpxtpx:hr>174</gpxtpx:hr>
      <gpxtpx:cad>92</gpxtpx:cad>
     </gpxtpx:TrackPointExtension>
    </extensions>
   </trkpt>
   <trkpt lat="40.1534070" lon="-76.9891190">
    <ele>127.0</ele>
    <time>2024-06-11T22:40:35Z</time>
    <extensions>
     <power>481</power>
     <gpxtpx:TrackPointExtension>
      <gpxtpx:hr>175</gpxtpx:hr>
      <gpxtpx:cad>92</gpxtpx:cad>
     </gpxtpx:TrackPointExtension>
    </extensions>
   </trkpt>
   <trkpt lat="40.1534230" lon="-76.9890580">
    <ele>127.0</ele>
    <time>2024-06-11T22:40:36Z</time>
    <extensions>
     <power>477</power>
     <gpxtpx:TrackPointExtension>
      <gpxtpx:hr>175</gpxtpx:hr>
      <gpxtpx:cad>94</gpxtpx:cad>
     </gpxtpx:TrackPointExtension>
    </extensions>
   </trkpt>
   <trkpt lat="40.1534430" lon="-76.9890060">
    <ele>127.0</ele>
    <time>2024-06-11T22:40:37Z</time>
    <extensions>
     <power>476</power>
     <gpxtpx:TrackPointExtension>
      <gpxtpx:hr>175</gpxtpx:hr>
      <gpxtpx:cad>95</gpxtpx:cad>
     </gpxtpx:TrackPointExtension>
    </extensions>
   </trkpt>
   <trkpt lat="40.1534600" lon="-76.9889710">
    <ele>127.0</ele>
    <time>2024-06-11T22:40:38Z</time>
    <extensions>
     <power>476</power>
     <gpxtpx:TrackPointExtension>
      <gpxtpx:hr>175</gpxtpx:hr>
      <gpxtpx:cad>95</gpxtpx:cad>
     </gpxtpx:TrackPointExtension>
    </extensions>
   </trkpt>
   <trkpt lat="40.1535030" lon="-76.9889070">
    <ele>127.0</ele>
    <time>2024-06-11T22:40:39Z</time>
    <extensions>
     <power>479</power>
     <gpxtpx:TrackPointExtension>
      <gpxtpx:hr>175</gpxtpx:hr>
      <gpxtpx:cad>93</gpxtpx:cad>
     </gpxtpx:TrackPointExtension>
    </extensions>
   </trkpt>
   <trkpt lat="40.1535250" lon="-76.9888820">
    <ele>127.0</ele>
    <time>2024-06-11T22:40:40Z</time>
    <extensions>
     <power>490</power>
     <gpxtpx:TrackPointExtension>
      <gpxtpx:hr>175</gpxtpx:hr>
      <gpxtpx:cad>93</gpxtpx:cad>
     </gpxtpx:TrackPointExtension>
    </extensions>
   </trkpt>
   <trkpt lat="40.1535710" lon="-76.9888410">
    <ele>127.0</ele>
    <time>2024-06-11T22:40:41Z</time>
    <extensions>
     <power>499</power>
     <gpxtpx:TrackPointExtension>
      <gpxtpx:hr>175</gpxtpx:hr>
      <gpxtpx:cad>93</gpxtpx:cad>
     </gpxtpx:TrackPointExtension>
    </extensions>
   </trkpt>
   <trkpt lat="40.1536030" lon="-76.9888190">
    <ele>127.0</ele>
    <time>2024-06-11T22:40:42Z</time>
    <extensions>
     <power>506</power>
     <gpxtpx:TrackPointExtension>
      <gpxtpx:hr>175</gpxtpx:hr>
      <gpxtpx:cad>93</gpxtpx:cad>
     </gpxtpx:TrackPointExtension>
    </extensions>
   </trkpt>
   <trkpt lat="40.1536530" lon="-76.9887960">
    <ele>127.0</ele>
    <time>2024-06-11T22:40:43Z</time>
    <extensions>
     <power>513</power>
     <gpxtpx:TrackPointExtension>
      <gpxtpx:hr>175</gpxtpx:hr>
      <gpxtpx:cad>95</gpxtpx:cad>
     </gpxtpx:TrackPointExtension>
    </extensions>
   </trkpt>
   <trkpt lat="40.1536920" lon="-76.9887840">
    <ele>127.0</ele>
    <time>2024-06-11T22:40:44Z</time>
    <extensions>
     <power>515</power>
     <gpxtpx:TrackPointExtension>
      <gpxtpx:hr>176</gpxtpx:hr>
      <gpxtpx:cad>95</gpxtpx:cad>
     </gpxtpx:TrackPointExtension>
    </extensions>
   </trkpt>
   <trkpt lat="40.1537430" lon="-76.9887790">
    <ele>127.0</ele>
    <time>2024-06-11T22:40:45Z</time>
    <extensions>
     <power>517</power>
     <gpxtpx:TrackPointExtension>
      <gpxtpx:hr>176</gpxtpx:hr>
      <gpxtpx:cad>95</gpxtpx:cad>
     </gpxtpx:TrackPointExtension>
    </extensions>
   </trkpt>
   <trkpt lat="40.1537910" lon="-76.9887830">
    <ele>127.0</ele>
    <time>2024-06-11T22:40:46Z</time>
    <extensions>
     <power>518</power>
     <gpxtpx:TrackPointExtension>
      <gpxtpx:hr>176</gpxtpx:hr>
      <gpxtpx:cad>95</gpxtpx:cad>
     </gpxtpx:TrackPointExtension>
    </extensions>
   </trkpt>
   <trkpt lat="40.1538440" lon="-76.9887970">
    <ele>127.0</ele>
    <time>2024-06-11T22:40:47Z</time>
    <extensions>
     <power>521</power>
     <gpxtpx:TrackPointExtension>
      <gpxtpx:hr>175</gpxtpx:hr>
      <gpxtpx:cad>94</gpxtpx:cad>
     </gpxtpx:TrackPointExtension>
    </extensions>
   </trkpt>
   <trkpt lat="40.1538880" lon="-76.9888180">
    <ele>127.0</ele>
    <time>2024-06-11T22:40:48Z</time>
    <extensions>
     <power>527</power>
     <gpxtpx:TrackPointExtension>
      <gpxtpx:hr>176</gpxtpx:hr>
      <gpxtpx:cad>92</gpxtpx:cad>
     </gpxtpx:TrackPointExtension>
    </extensions>
   </trkpt>
   <trkpt lat="40.1539270" lon="-76.9888440">
    <ele>127.0</ele>
    <time>2024-06-11T22:40:49Z</time>
    <extensions>
     <power>533</power>
     <gpxtpx:TrackPointExtension>
      <gpxtpx:hr>176</gpxtpx:hr>
      <gpxtpx:cad>92</gpxtpx:cad>
     </gpxtpx:TrackPointExtension>
    </extensions>
   </trkpt>
   <trkpt lat="40.1539730" lon="-76.9888870">
    <ele>127.0</ele>
    <time>2024-06-11T22:40:50Z</time>
    <extensions>
     <power>538</power>
     <gpxtpx:TrackPointExtension>
      <gpxtpx:hr>176</gpxtpx:hr>
      <gpxtpx:cad>92</gpxtpx:cad>
     </gpxtpx:TrackPointExtension>
    </extensions>
   </trkpt>
   <trkpt lat="40.1540020" lon="-76.9889220">
    <ele>127.0</ele>
    <time>2024-06-11T22:40:51Z</time>
    <extensions>
     <power>541</power>
     <gpxtpx:TrackPointExtension>
      <gpxtpx:hr>176</gpxtpx:hr>
      <gpxtpx:cad>92</gpxtpx:cad>
     </gpxtpx:TrackPointExtension>
    </extensions>
   </trkpt>
   <trkpt lat="40.1540340" lon="-76.9889720">
    <ele>127.0</ele>
    <time>2024-06-11T22:40:52Z</time>
    <extensions>
     <power>542</power>
     <gpxtpx:TrackPointExtension>
      <gpxtpx:hr>176</gpxtpx:hr>
      <gpxtpx:cad>92</gpxtpx:cad>
     </gpxtpx:TrackPointExtension>
    </extensions>
   </trkpt>
   <trkpt lat="40.1540590" lon="-76.9890260">
    <ele>127.0</ele>
    <time>2024-06-11T22:40:53Z</time>
    <extensions>
     <power>542</power>
     <gpxtpx:TrackPointExtension>
      <gpxtpx:hr>176</gpxtpx:hr>
      <gpxtpx:cad>92</gpxtpx:cad>
     </gpxtpx:TrackPointExtension>
    </extensions>
   </trkpt>
   <trkpt lat="40.1540800" lon="-76.9890890">
    <ele>127.0</ele>
    <time>2024-06-11T22:40:54Z</time>
    <extensions>
     <power>537</power>
     <gpxtpx:TrackPointExtension>
      <gpxtpx:hr>177</gpxtpx:hr>
      <gpxtpx:cad>93</gpxtpx:cad>
     </gpxtpx:TrackPointExtension>
    </extensions>
   </trkpt>
   <trkpt lat="40.1540910" lon="-76.9891400">
    <ele>127.0</ele>
    <time>2024-06-11T22:40:55Z</time>
    <extensions>
     <power>534</power>
     <gpxtpx:TrackPointExtension>
      <gpxtpx:hr>177</gpxtpx:hr>
      <gpxtpx:cad>93</gpxtpx:cad>
     </gpxtpx:TrackPointExtension>
    </extensions>
   </trkpt>
   <trkpt lat="40.1540980" lon="-76.9892070">
    <ele>127.0</ele>
    <time>2024-06-11T22:40:56Z</time>
    <extensions>
     <power>536</power>
     <gpxtpx:TrackPointExtension>
      <gpxtpx:hr>177</gpxtpx:hr>
      <gpxtpx:cad>93</gpxtpx:cad>
     </gpxtpx:TrackPointExtension>
    </extensions>
   </trkpt>
   <trkpt lat="40.1540990" lon="-76.9892600">
    <ele>127.0</ele>
    <time>2024-06-11T22:40:57Z</time>
    <extensions>
     <power>536</power>
     <gpxtpx:TrackPointExtension>
      <gpxtpx:hr>177</gpxtpx:hr>
      <gpxtpx:cad>93</gpxtpx:cad>
     </gpxtpx:TrackPointExtension>
    </extensions>
   </trkpt>
   <trkpt lat="40.1540950" lon="-76.9893340">
    <ele>127.0</ele>
    <time>2024-06-11T22:40:58Z</time>
    <extensions>
     <power>541</power>
     <gpxtpx:TrackPointExtension>
      <gpxtpx:hr>176</gpxtpx:hr>
      <gpxtpx:cad>92</gpxtpx:cad>
     </gpxtpx:TrackPointExtension>
    </extensions>
   </trkpt>
   <trkpt lat="40.1540920" lon="-76.9893850">
    <ele>127.0</ele>
    <time>2024-06-11T22:40:59Z</time>
    <extensions>
     <power>536</power>
     <gpxtpx:TrackPointExtension>
      <gpxtpx:hr>176</gpxtpx:hr>
      <gpxtpx:cad>92</gpxtpx:cad>
     </gpxtpx:TrackPointExtension>
    </extensions>
   </trkpt>
   <trkpt lat="40.1540870" lon="-76.9894540">
    <ele>127.0</ele>
    <time>2024-06-11T22:41:00Z</time>
    <extensions>
     <power>517</power>
     <gpxtpx:TrackPointExtension>
      <gpxtpx:hr>176</gpxtpx:hr>
      <gpxtpx:cad>91</gpxtpx:cad>
     </gpxtpx:TrackPointExtension>
    </extensions>
   </trkpt>
   <trkpt lat="40.1540830" lon="-76.9895110">
    <ele>127.0</ele>
    <time>2024-06-11T22:41:01Z</time>
    <extensions>
     <power>509</power>
     <gpxtpx:TrackPointExtension>
      <gpxtpx:hr>177</gpxtpx:hr>
      <gpxtpx:cad>91</gpxtpx:cad>
     </gpxtpx:TrackPointExtension>
    </extensions>
   </trkpt>
   <trkpt lat="40.1540780" lon="-76.9895870">
    <ele>127.0</ele>
    <time>2024-06-11T22:41:02Z</time>
    <extensions>
     <power>505</power>
     <gpxtpx:TrackPointExtension>
      <gpxtpx:hr>177</gpxtpx:hr>
      <gpxtpx:cad>91</gpxtpx:cad>
     </gpxtpx:TrackPointExtension>
    </extensions>
   </trkpt>
   <trkpt lat="40.1540740" lon="-76.9896520">
    <ele>127.0</ele>
    <time>2024-06-11T22:41:03Z</time>
    <extensions>
     <power>503</power>
     <gpxtpx:TrackPointExtension>
      <gpxtpx:hr>177</gpxtpx:hr>
      <gpxtpx:cad>91</gpxtpx:cad>
     </gpxtpx:TrackPointExtension>
    </extensions>
   </trkpt>
   <trkpt lat="40.1540690" lon="-76.9897210">
    <ele>127.0</ele>
    <time>2024-06-11T22:41:04Z</time>
    <extensions>
     <power>504</power>
     <gpxtpx:TrackPointExtension>
      <gpxtpx:hr>177</gpxtpx:hr>
      <gpxtpx:cad>92</gpxtpx:cad>
     </gpxtpx:TrackPointExtension>
    </extensions>
   </trkpt>
   <trkpt lat="40.1540650" lon="-76.9897860">
    <ele>127.0</ele>
    <time>2024-06-11T22:41:05Z</time>
    <extensions>
     <power>504</power>
     <gpxtpx:TrackPointExtension>
      <gpxtpx:hr>177</gpxtpx:hr>
      <gpxtpx:cad>92</gpxtpx:cad>
     </gpxtpx:TrackPointExtension>
    </extensions>
   </trkpt>
   <trkpt lat="40.1540620" lon="-76.9898360">
    <ele>127.0</ele>
    <time>2024-06-11T22:41:06Z</time>
    <extensions>
     <power>507</power>
     <gpxtpx:TrackPointExtension>
      <gpxtpx:hr>177</gpxtpx:hr>
      <gpxtpx:cad>92</gpxtpx:cad>
     </gpxtpx:TrackPointExtension>
    </extensions>
   </trkpt>
   <trkpt lat="40.1540570" lon="-76.9899040">
    <ele>127.0</ele>
    <time>2024-06-11T22:41:07Z</time>
    <extensions>
     <power>510</power>
     <gpxtpx:TrackPointExtension>
      <gpxtpx:hr>177</gpxtpx:hr>
      <gpxtpx:cad>92</gpxtpx:cad>
     </gpxtpx:TrackPointExtension>
    </extensions>
   </trkpt>
   <trkpt lat="40.1540540" lon="-76.9899470">
    <ele>127.0</ele>
    <time>2024-06-11T22:41:08Z</time>
    <extensions>
     <power>509</power>
     <gpxtpx:TrackPointExtension>
      <gpxtpx:hr>177</gpxtpx:hr>
      <gpxtpx:cad>92</gpxtpx:cad>
     </gpxtpx:TrackPointExtension>
    </extensions>
   </trkpt>
   <trkpt lat="40.1540490" lon="-76.9900300">
    <ele>127.0</ele>
    <time>2024-06-11T22:41:09Z</time>
    <extensions>
     <power>507</power>
     <gpxtpx:TrackPointExtension>
      <gpxtpx:hr>177</gpxtpx:hr>
      <gpxtpx:cad>93</gpxtpx:cad>
     </gpxtpx:TrackPointExtension>
    </extensions>
   </trkpt>
   <trkpt lat="40.1540460" lon="-76.9900740">
    <ele>127.0</ele>
    <time>2024-06-11T22:41:10Z</time>
    <extensions>
     <power>504</power>
     <gpxtpx:TrackPointExtension>
      <gpxtpx:hr>177</gpxtpx:hr>
      <gpxtpx:cad>93</gpxtpx:cad>
     </gpxtpx:TrackPointExtension>
    </extensions>
   </trkpt>
   <trkpt lat="40.1540400" lon="-76.9901530">
    <ele>127.0</ele>
    <time>2024-06-11T22:41:11Z</time>
    <extensions>
     <power>505</power>
     <gpxtpx:TrackPointExtension>
      <gpxtpx:hr>177</gpxtpx:hr>
      <gpxtpx:cad>93</gpxtpx:cad>
     </gpxtpx:TrackPointExtension>
    </extensions>
   </trkpt>
   <trkpt lat="40.1540380" lon="-76.9901860">
    <ele>127.0</ele>
    <time>2024-06-11T22:41:12Z</time>
    <extensions>
     <power>506</power>
     <gpxtpx:TrackPointExtension>
      <gpxtpx:hr>178</gpxtpx:hr>
      <gpxtpx:cad>92</gpxtpx:cad>
     </gpxtpx:TrackPointExtension>
    </extensions>
   </trkpt>
   <trkpt lat="40.1540280" lon="-76.9902540">
    <ele>127.0</ele>
    <time>2024-06-11T22:41:13Z</time>
    <extensions>
     <power>507</power>
     <gpxtpx:TrackPointExtension>
      <gpxtpx:hr>177</gpxtpx:hr>
      <gpxtpx:cad>91</gpxtpx:cad>
     </gpxtpx:TrackPointExtension>
    </extensions>
   </trkpt>
   <trkpt lat="40.1540200" lon="-76.9902900">
    <ele>127.0</ele>
    <time>2024-06-11T22:41:14Z</time>
    <extensions>
     <power>501</power>
     <gpxtpx:TrackPointExtension>
      <gpxtpx:hr>177</gpxtpx:hr>
      <gpxtpx:cad>91</gpxtpx:cad>
     </gpxtpx:TrackPointExtension>
    </extensions>
   </trkpt>
   <trkpt lat="40.1540010" lon="-76.9903480">
    <ele>127.0</ele>
    <time>2024-06-11T22:41:15Z</time>
    <extensions>
     <power>501</power>
     <gpxtpx:TrackPointExtension>
      <gpxtpx:hr>177</gpxtpx:hr>
      <gpxtpx:cad>91</gpxtpx:cad>
     </gpxtpx:TrackPointExtension>
    </extensions>
   </trkpt>
   <trkpt lat="40.1539880" lon="-76.9903760">
    <ele>127.0</ele>
    <time>2024-06-11T22:41:16Z</time>
    <extensions>
     <power>494</power>
     <gpxtpx:TrackPointExtension>
      <gpxtpx:hr>177</gpxtpx:hr>
      <gpxtpx:cad>92</gpxtpx:cad>
     </gpxtpx:TrackPointExtension>
    </extensions>
   </trkpt>
   <trkpt lat="40.1539610" lon="-76.9904260">
    <ele>127.0</ele>
    <time>2024-06-11T22:41:17Z</time>
    <extensions>
     <power>489</power>
     <gpxtpx:TrackPointExtension>
      <gpxtpx:hr>177</gpxtpx:hr>
      <gpxtpx:cad>92</gpxtpx:cad>
     </gpxtpx:TrackPointExtension>
    </extensions>
   </trkpt>
   <trkpt lat="40.1539360" lon="-76.9904630">
    <ele>127.0</ele>
    <time>2024-06-11T22:41:18Z</time>
    <extensions>
     <power>484</power>
     <gpxtpx:TrackPointExtension>
      <gpxtpx:hr>177</gpxtpx:hr>
      <gpxtpx:cad>92</gpxtpx:cad>
     </gpxtpx:TrackPointExtension>
    </extensions>
   </trkpt>
   <trkpt lat="40.1538980" lon="-76.9905050">
    <ele>127.0</ele>
    <time>2024-06-11T22:41:19Z</time>
    <extensions>
     <power>480</power>
     <gpxtpx:TrackPointExtension>
      <gpxtpx:hr>177</gpxtpx:hr>
      <gpxtpx:cad>91</gpxtpx:cad>
     </gpxtpx:TrackPointExtension>
    </extensions>
   </trkpt>
   <trkpt lat="40.1538640" lon="-76.9905350">
    <ele>127.0</ele>
    <time>2024-06-11T22:41:20Z</time>
    <extensions>
     <power>475</power>
     <gpxtpx:TrackPointExtension>
      <gpxtpx:hr>177</gpxtpx:hr>
      <gpxtpx:cad>90</gpxtpx:cad>
     </gpxtpx:TrackPointExtension>
    </extensions>
   </trkpt>
   <trkpt lat="40.1538190" lon="-76.9905640">
    <ele>127.0</ele>
    <time>2024-06-11T22:41:21Z</time>
    <extensions>
     <power>472</power>
     <gpxtpx:TrackPointExtension>
      <gpxtpx:hr>177</gpxtpx:hr>
      <gpxtpx:cad>90</gpxtpx:cad>
     </gpxtpx:TrackPointExtension>
    </extensions>
   </trkpt>
   <trkpt lat="40.1537880" lon="-76.9905780">
    <ele>127.0</ele>
    <time>2024-06-11T22:41:22Z</time>
    <extensions>
     <power>473</power>
     <gpxtpx:TrackPointExtension>
      <gpxtpx:hr>177</gpxtpx:hr>
      <gpxtpx:cad>90</gpxtpx:cad>
     </gpxtpx:TrackPointExtension>
    </extensions>
   </trkpt>
   <trkpt lat="40.1537350" lon="-76.9905930">
    <ele>127.0</ele>
    <time>2024-06-11T22:41:23Z</time>
    <extensions>
     <power>473</power>
     <gpxtpx:TrackPointExtension>
      <gpxtpx:hr>178</gpxtpx:hr>
      <gpxtpx:cad>90</gpxtpx:cad>
     </gpxtpx:TrackPointExtension>
    </extensions>
   </trkpt>
   <trkpt lat="40.1537020" lon="-76.9905980">
    <ele>127.0</ele>
    <time>2024-06-11T22:41:24Z</time>
    <extensions>
     <power>472</power>
     <gpxtpx:TrackPointExtension>
      <gpxtpx:hr>178</gpxtpx:hr>
      <gpxtpx:cad>91</gpxtpx:cad>
     </gpxtpx:TrackPointExtension>
    </extensions>
   </trkpt>
   <trkpt lat="40.1536460" lon="-76.9905940">
    <ele>127.0</ele>
    <time>2024-06-11T22:41:25Z</time>
    <extensions>
     <power>470</power>
     <gpxtpx:TrackPointExtension>
      <gpxtpx:hr>178</gpxtpx:hr>
      <gpxtpx:cad>91</gpxtpx:cad>
     </gpxtpx:TrackPointExtension>
    </extensions>
   </trkpt>
   <trkpt lat="40.1536050" lon="-76.9905850">
    <ele>127.0</ele>
    <time>2024-06-11T22:41:26Z</time>
    <extensions>
     <power>467</power>
     <gpxtpx:TrackPointExtension>
      <gpxtpx:hr>178</gpxtpx:hr>
      <gpxtpx:cad>91</gpxtpx:cad>
     </gpxtpx:TrackPointExtension>
    </extensions>
   </trkpt>
   <trkpt lat="40.1535580" lon="-76.9905650">
    <ele>127.0</ele>
    <time>2024-06-11T22:41:27Z</time>
    <extensions>
     <power>468</power>
     <gpxtpx:TrackPointExtension>
      <gpxtpx:hr>178</gpxtpx:hr>
      <gpxtpx:cad>91</gpxtpx:cad>
     </gpxtpx:TrackPointExtension>
    </extensions>
   </trkpt>
   <trkpt lat="40.1535230" lon="-76.9905450">
    <ele>127.0</ele>
    <time>2024-06-11T22:41:28Z</time>
    <extensions>
     <power>468</power>
     <gpxtpx:TrackPointExtension>
      <gpxtpx:hr>178</gpxtpx:hr>
      <gpxtpx:cad>91</gpxtpx:cad>
     </gpxtpx:TrackPointExtension>
    </extensions>
   </trkpt>
   <trkpt lat="40.1534930" lon="-76.9905210">
    <ele>127.0</ele>
    <time>2024-06-11T22:41:29Z</time>
    <extensions>
     <power>471</power>
     <gpxtpx:TrackPointExtension>
      <gpxtpx:hr>177</gpxtpx:hr>
      <gpxtpx:cad>91</gpxtpx:cad>
     </gpxtpx:TrackPointExtension>
    </extensions>
   </trkpt>
   <trkpt lat="40.1534530" lon="-76.9904820">
    <ele>127.0</ele>
    <time>2024-06-11T22:41:30Z</time>
    <extensions>
     <power>473</power>
     <gpxtpx:TrackPointExtension>
      <gpxtpx:hr>178</gpxtpx:hr>
      <gpxtpx:cad>91</gpxtpx:cad>
     </gpxtpx:TrackPointExtension>
    </extensions>
   </trkpt>
   <trkpt lat="40.1534300" lon="-76.9904510">
    <ele>127.0</ele>
    <time>2024-06-11T22:41:31Z</time>
    <extensions>
     <power>473</power>
     <gpxtpx:TrackPointExtension>
      <gpxtpx:hr>178</gpxtpx:hr>
      <gpxtpx:cad>91</gpxtpx:cad>
     </gpxtpx:TrackPointExtension>
    </extensions>
   </trkpt>
   <trkpt lat="40.1533870" lon="-76.9903800">
    <ele>127.0</ele>
    <time>2024-06-11T22:41:32Z</time>
    <extensions>
     <power>477</power>
     <gpxtpx:TrackPointExtension>
      <gpxtpx:hr>178</gpxtpx:hr>
      <gpxtpx:cad>91</gpxtpx:cad>
     </gpxtpx:TrackPointExtension>
    </extensions>
   </trkpt>
   <trkpt lat="40.1533730" lon="-76.9903440">
    <ele>127.0</ele>
    <time>2024-06-11T22:41:33Z</time>
    <extensions>
     <power>475</power>
     <gpxtpx:TrackPointExtension>
      <gpxtpx:hr>178</gpxtpx:hr>
      <gpxtpx:cad>92</gpxtpx:cad>
     </gpxtpx:TrackPointExtension>
    </extensions>
   </trkpt>
   <trkpt lat="40.1533490" lon="-76.9902700">
    <ele>127.0</ele>
    <time>2024-06-11T22:41:34Z</time>
    <extensions>
     <power>478</power>
     <gpxtpx:TrackPointExtension>
      <gpxtpx:hr>178</gpxtpx:hr>
      <gpxtpx:cad>92</gpxtpx:cad>
     </gpxtpx:TrackPointExtension>
    </extensions>
   </trkpt>
   <trkpt lat="40.1533410" lon="-76.9902220">
    <ele>127.0</ele>
    <time>2024-06-11T22:41:35Z</time>
    <extensions>
     <power>479</power>
     <gpxtpx:TrackPointExtension>
      <gpxtpx:hr>178</gpxtpx:hr>
      <gpxtpx:cad>92</gpxtpx:cad>
     </gpxtpx:TrackPointExtension>
    </extensions>
   </trkpt>
   <trkpt lat="40.1533350" lon="-76.9901490">
    <ele>127.0</ele>
    <time>2024-06-11T22:41:36Z</time>
    <extensions>
     <power>483</power>
     <gpxtpx:TrackPointExtension>
      <gpxtpx:hr>177</gpxtpx:hr>
      <gpxtpx:cad>94</gpxtpx:cad>
     </gpxtpx:TrackPointExtension>
    </extensions>
   </trkpt>
   <trkpt lat="40.1533360" lon="-76.9900890">
    <ele>127.0</ele>
    <time>2024-06-11T22:41:37Z</time>
    <extensions>
     <power>484</power>
     <gpxtpx:TrackPointExtension>
      <gpxtpx:hr>178</gpxtpx:hr>
      <gpxtpx:cad>94</gpxtpx:cad>
     </gpxtpx:TrackPointExtension>
    </extensions>
   </trkpt>
   <trkpt lat="40.1533400" lon="-76.9900280">
    <ele>127.0</ele>
    <time>2024-06-11T22:41:38Z</time>
    <extensions>
     <power>487</power>
     <gpxtpx:TrackPointExtension>
      <gpxtpx:hr>178</gpxtpx:hr>
      <gpxtpx:cad>94</gpxtpx:cad>
     </gpxtpx:TrackPointExtension>
    </extensions>
   </trkpt>
   <trkpt lat="40.1533450" lon="-76.9899570">
    <ele>127.0</ele>
    <time>2024-06-11T22:41:39Z</time>
    <extensions>
     <power>491</power>
     <gpxtpx:TrackPointExtension>
      <gpxtpx:hr>178</gpxtpx:hr>
      <gpxtpx:cad>94</gpxtpx:cad>
     </gpxtpx:TrackPointExtension>
    </extensions>
   </trkpt>
   <trkpt lat="40.1533490" lon="-76.9898920">
    <ele>127.0</ele>
    <time>2024-06-11T22:41:40Z</time>
    <extensions>
     <power>492</power>
     <gpxtpx:TrackPointExtension>
      <gpxtpx:hr>177</gpxtpx:hr>
      <gpxtpx:cad>93</gpxtpx:cad>
     </gpxtpx:TrackPointExtension>
    </extensions>
   </trkpt>
   <trkpt lat="40.1533530" lon="-76.9898290">
    <ele>127.0</ele>
    <time>2024-06-11T22:41:41Z</time>
    <extensions>
     <power>497</power>
     <gpxtpx:TrackPointExtension>
      <gpxtpx:hr>178</gpxtpx:hr>
      <gpxtpx:cad>92</gpxtpx:cad>
     </gpxtpx:TrackPointExtension>
    </extensions>
   </trkpt>
   <trkpt lat="40.1533570" lon="-76.9897690">
    <ele>127.0</ele>
    <time>2024-06-11T22:41:42Z</time>
    <extensions>
     <power>497</power>
     <gpxtpx:TrackPointExtension>
      <gpxtpx:hr>178</gpxtpx:hr>
      <gpxtpx:cad>92</gpxtpx:cad>
     </gpxtpx:TrackPointExtension>
    </extensions>
   </trkpt>
   <trkpt lat="40.1533620" lon="-76.9897010">
    <ele>127.0</ele>
    <time>2024-06-11T22:41:43Z</time>
    <extensions>
     <power>497</power>
     <gpxtpx:TrackPointExtension>
      <gpxtpx:hr>178</gpxtpx:hr>
      <gpxtpx:cad>92</gpxtpx:cad>
     </gpxtpx:TrackPointExtension>
    </extensions>
   </trkpt>
   <trkpt lat="40.1533660" lon="-76.9896440">
    <ele>127.0</ele>
    <time>2024-06-11T22:41:44Z</time>
    <extensions>
     <power>500</power>
     <gpxtpx:TrackPointExtension>
      <gpxtpx:hr>178</gpxtpx:hr>
      <gpxtpx:cad>92</gpxtpx:cad>
     </gpxtpx:TrackPointExtension>
    </extensions>
   </trkpt>
   <trkpt lat="40.1533700" lon="-76.9895760">
    <ele>127.0</ele>
    <time>2024-06-11T22:41:45Z</time>
    <extensions>
     <power>499</power>
     <gpxtpx:TrackPointExtension>
      <gpxtpx:hr>178</gpxtpx:hr>
      <gpxtpx:cad>90</gpxtpx:cad>
     </gpxtpx:TrackPointExtension>
    </extensions>
   </trkpt>
   <trkpt lat="40.1533740" lon="-76.9895220">
    <ele>127.0</ele>
    <time>2024-06-11T22:41:46Z</time>
    <extensions>
     <power>500</power>
     <gpxtpx:TrackPointExtension>
      <gpxtpx:hr>178</gpxtpx:hr>
      <gpxtpx:cad>90</gpxtpx:cad>
     </gpxtpx:TrackPointExtension>
    </extensions>
   </trkpt>
   <trkpt lat="40.1533780" lon="-76.9894580">
    <ele>127.0</ele>
    <time>2024-06-11T22:41:47Z</time>
    <extensions>
     <power>499</power>
     <gpxtpx:TrackPointExtension>
      <gpxtpx:hr>178</gpxtpx:hr>
      <gpxtpx:cad>89</gpxtpx:cad>
     </gpxtpx:TrackPointExtension>
    </extensions>
   </trkpt>
   <trkpt lat="40.1533810" lon="-76.9894140">
    <ele>127.0</ele>
    <time>2024-06-11T22:41:48Z</time>
    <extensions>
     <power>500</power>
     <gpxtpx:TrackPointExtension>
      <gpxtpx:hr>178</gpxtpx:hr>
      <gpxtpx:cad>89</gpxtpx:cad>
     </gpxtpx:TrackPointExtension>
    </extensions>
   </trkpt>
   <trkpt lat="40.1533850" lon="-76.9893470">
    <ele>127.0</ele>
    <time>2024-06-11T22:41:49Z</time>
    <extensions>
     <power>500</power>
     <gpxtpx:TrackPointExtension>
      <gpxtpx:hr>178</gpxtpx:hr>
      <gpxtpx:cad>89</gpxtpx:cad>
     </gpxtpx:TrackPointExtension>
    </extensions>
   </trkpt>
   <trkpt lat="40.1533890" lon="-76.9892890">
    <ele>127.0</ele>
    <time>2024-06-11T22:41:50Z</time>
    <extensions>
     <power>499</power>
     <gpxtpx:TrackPointExtension>
      <gpxtpx:hr>178</gpxtpx:hr>
      <gpxtpx:cad>90</gpxtpx:cad>
     </gpxtpx:TrackPointExtension>
    </extensions>
   </trkpt>
   <trkpt lat="40.1533940" lon="-76.9892130">
    <ele>127.0</ele>
    <time>2024-06-11T22:41:51Z</time>
    <extensions>
     <power>501</power>
     <gpxtpx:TrackPointExtension>
      <gpxtpx:hr>178</gpxtpx:hr>
      <gpxtpx:cad>90</gpxtpx:cad>
     </gpxtpx:TrackPointExtension>
    </extensions>
   </trkpt>
   <trkpt lat="40.1533990" lon="-76.9891710">
    <ele>127.0</ele>
    <time>2024-06-11T22:41:52Z</time>
    <extensions>
     <power>504</power>
     <gpxtpx:TrackPointExtension>
      <gpxtpx:hr>178</gpxtpx:hr>
      <gpxtpx:cad>91</gpxtpx:cad>
     </gpxtpx:TrackPointExtension>
    </extensions>
   </trkpt>
   <trkpt lat="40.1534120" lon="-76.9890970">
    <ele>127.0</ele>
    <time>2024-06-11T22:41:53Z</time>
    <extensions>
     <power>505</power>
     <gpxtpx:TrackPointExtension>
      <gpxtpx:hr>179</gpxtpx:hr>
      <gpxtpx:cad>91</gpxtpx:cad>
     </gpxtpx:TrackPointExtension>
    </extensions>
   </trkpt>
   <trkpt lat="40.1534240" lon="-76.9890550">
    <ele>127.0</ele>
    <time>2024-06-11T22:41:54Z</time>
    <extensions>
     <power>506</power>
     <gpxtpx:TrackPointExtension>
      <gpxtpx:hr>178</gpxtpx:hr>
      <gpxtpx:cad>92</gpxtpx:cad>
     </gpxtpx:TrackPointExtension>
    </extensions>
   </trkpt>
   <trkpt lat="40.1534470" lon="-76.9889980">
    <ele>127.0</ele>
    <time>2024-06-11T22:41:55Z</time>
    <extensions>
     <power>506</power>
     <gpxtpx:TrackPointExtension>
      <gpxtpx:hr>178</gpxtpx:hr>
      <gpxtpx:cad>92</gpxtpx:cad>
     </gpxtpx:TrackPointExtension>
    </extensions>
   </trkpt>
   <trkpt lat="40.1534670" lon="-76.9889600">
    <ele>127.0</ele>
    <time>2024-06-11T22:41:56Z</time>
    <extensions>
     <power>509</power>
     <gpxtpx:TrackPointExtension>
      <gpxtpx:hr>178</gpxtpx:hr>
      <gpxtpx:cad>92</gpxtpx:cad>
     </gpxtpx:TrackPointExtension>
    </extensions>
   </trkpt>
   <trkpt lat="40.1535030" lon="-76.9889070">
    <ele>127.0</ele>
    <time>2024-06-11T22:41:57Z</time>
    <extensions>
     <power>513</power>
     <gpxtpx:TrackPointExtension>
      <gpxtpx:hr>178</gpxtpx:hr>
      <gpxtpx:cad>92</gpxtpx:cad>
     </gpxtpx:TrackPointExtension>
    </extensions>
   </trkpt>
   <trkpt lat="40.1535220" lon="-76.9888840">
    <ele>127.0</ele>
    <time>2024-06-11T22:41:58Z</time>
    <extensions>
     <power>519</power>
     <gpxtpx:TrackPointExtension>
      <gpxtpx:hr>178</gpxtpx:hr>
      <gpxtpx:cad>92</gpxtpx:cad>
     </gpxtpx:TrackPointExtension>
    </extensions>
   </trkpt>
   <trkpt lat="40.1535730" lon="-76.9888390">
    <ele>127.0</ele>
    <time>2024-06-11T22:41:59Z</time>
    <extensions>
     <power>523</power>
     <gpxtpx:TrackPointExtension>
      <gpxtpx:hr>178</gpxtpx:hr>
      <gpxtpx:cad>92</gpxtpx:cad>
     </gpxtpx:TrackPointExtension>
    </extensions>
   </trkpt>
   <trkpt lat="40.1535960" lon="-76.9888230">
    <ele>127.0</ele>
    <time>2024-06-11T22:42:00Z</time>
    <extensions>
     <power>526</power>
     <gpxtpx:TrackPointExtension>
      <gpxtpx:hr>178</gpxtpx:hr>
      <gpxtpx:cad>92</gpxtpx:cad>
     </gpxtpx:TrackPointExtension>
    </extensions>
   </trkpt>
   <trkpt lat="40.1536510" lon="-76.9887960">
    <ele>127.0</ele>
    <time>2024-06-11T22:42:01Z</time>
    <extensions>
     <power>528</power>
     <gpxtpx:TrackPointExtension>
      <gpxtpx:hr>178</gpxtpx:hr>
      <gpxtpx:cad>91</gpxtpx:cad>
     </gpxtpx:TrackPointExtension>
    </extensions>
   </trkpt>
   <trkpt lat="40.1536910" lon="-76.9887850">
    <ele>127.0</ele>
    <time>2024-06-11T22:42:02Z</time>
    <extensions>
     <power>528</power>
     <gpxtpx:TrackPointExtension>
      <gpxtpx:hr>178</gpxtpx:hr>
      <gpxtpx:cad>91</gpxtpx:cad>
     </gpxtpx:TrackPointExtension>
    </extensions>
   </trkpt>
   <trkpt lat="40.1537520" lon="-76.9887790">
    <ele>127.0</ele>
    <time>2024-06-11T22:42:03Z</time>
    <extensions>
     <power>527</power>
     <gpxtpx:TrackPointExtension>
      <gpxtpx:hr>178</gpxtpx:hr>
      <gpxtpx:cad>92</gpxtpx:cad>
     </gpxtpx:TrackPointExtension>
    </extensions>
   </trkpt>
   <trkpt lat="40.1537920" lon="-76.9887830">
    <ele>127.0</ele>
    <time>2024-06-11T22:42:04Z</time>
    <extensions>
     <power>529</power>
     <gpxtpx:TrackPointExtension>
      <gpxtpx:hr>178</gpxtpx:hr>
      <gpxtpx:cad>92</gpxtpx:cad>
     </gpxtpx:TrackPointExtension>
    </extensions>
   </trkpt>
   <trkpt lat="40.1538500" lon="-76.9888000">
    <ele>127.0</ele>
    <time>2024-06-11T22:42:05Z</time>
    <extensions>
     <power>528</power>
     <gpxtpx:TrackPointExtension>
      <gpxtpx:hr>178</gpxtpx:hr>
      <gpxtpx:cad>92</gpxtpx:cad>
     </gpxtpx:TrackPointExtension>
    </extensions>
   </trkpt>
   <trkpt lat="40.1538860" lon="-76.9888170">
    <ele>127.0</ele>
    <time>2024-06-11T22:42:06Z</time>
    <extensions>
     <power>528</power>
     <gpxtpx:TrackPointExtension>
      <gpxtpx:hr>178</gpxtpx:hr>
      <gpxtpx:cad>92</gpxtpx:cad>
     </gpxtpx:TrackPointExtension>
    </extensions>
   </trkpt>
   <trkpt lat="40.1539330" lon="-76.9888490">
    <ele>127.0</ele>
    <time>2024-06-11T22:42:07Z</time>
    <extensions>
     <power>530</power>
     <gpxtpx:TrackPointExtension>
      <gpxtpx:hr>178</gpxtpx:hr>
      <gpxtpx:cad>92</gpxtpx:cad>
     </gpxtpx:TrackPointExtension>
    </extensions>
   </trkpt>
   <trkpt lat="40.1539630" lon="-76.9888770">
    <ele>127.0</ele>
    <time>2024-06-11T22:42:08Z</time>
    <extensions>
     <power>534</power>
     <gpxtpx:TrackPointExtension>
      <gpxtpx:hr>178</gpxtpx:hr>
      <gpxtpx:cad>92</gpxtpx:cad>
     </gpxtpx:TrackPointExtension>
    </extensions>
   </trkpt>
   <trkpt lat="40.1540040" lon="-76.9889250">
    <ele>127.0</ele>
    <time>2024-06-11T22:42:09Z</time>
    <extensions>
     <power>536</power>
     <gpxtpx:TrackPointExtension>
      <gpxtpx:hr>179</gpxtpx:hr>
      <gpxtpx:cad>92</gpxtpx:cad>
     </gpxtpx:TrackPointExtension>
    </extensions>
   </trkpt>
   <trkpt lat="40.1540340" lon="-76.9889740">
    <ele>127.0</ele>
    <time>2024-06-11T22:42:10Z</time>
    <extensions>
     <power>536</power>
     <gpxtpx:TrackPointExtension>
      <gpxtpx:hr>178</gpxtpx:hr>
      <gpxtpx:cad>91</gpxtpx:cad>
     </gpxtpx:TrackPointExtension>
    </extensions>
   </trkpt>
   <trkpt lat="40.1540580" lon="-76.9890250">
    <ele>127.0</ele>
    <time>2024-06-11T22:42:11Z</time>
    <extensions>
     <power>535</power>
     <gpxtpx:TrackPointExtension>
      <gpxtpx:hr>180</gpxtpx:hr>
      <gpxtpx:cad>91</gpxtpx:cad>
     </gpxtpx:TrackPointExtension>
    </extensions>
   </trkpt>
   <trkpt lat="40.1540770" lon="-76.9890800">
    <ele>127.0</ele>
    <time>2024-06-11T22:42:12Z</time>
    <extensions>
     <power>535</power>
     <gpxtpx:TrackPointExtension>
      <gpxtpx:hr>179</gpxtpx:hr>
      <gpxtpx:cad>90</gpxtpx:cad>
     </gpxtpx:TrackPointExtension>
    </extensions>
   </trkpt>
   <trkpt lat="40.1540890" lon="-76.9891290">
    <ele>127.0</ele>
    <time>2024-06-11T22:42:13Z</time>
    <extensions>
     <power>536</power>
     <gpxtpx:TrackPointExtension>
      <gpxtpx:hr>179</gpxtpx:hr>
      <gpxtpx:cad>90</gpxtpx:cad>
     </gpxtpx:TrackPointExtension>
    </extensions>
   </trkpt>
   <trkpt lat="40.1540970" lon="-76.9891960">
    <ele>127.0</ele>
    <time>2024-06-11T22:42:14Z</time>
    <extensions>
     <power>535</power>
     <gpxtpx:TrackPointExtension>
      <gpxtpx:hr>179</gpxtpx:hr>
      <gpxtpx:cad>90</gpxtpx:cad>
     </gpxtpx:TrackPointExtension>
    </extensions>
   </trkpt>
   <trkpt lat="40.1540990" lon="-76.9892610">
    <ele>127.0</ele>
    <time>2024-06-11T22:42:15Z</time>
    <extensions>
     <power>533</power>
     <gpxtpx:TrackPointExtension>
      <gpxtpx:hr>179</gpxtpx:hr>
      <gpxtpx:cad>90</gpxtpx:cad>
     </gpxtpx:TrackPointExtension>
    </extensions>
   </trkpt>
   <trkpt lat="40.1540960" lon="-76.9893110">
    <ele>127.0</ele>
    <time>2024-06-11T22:42:16Z</time>
    <extensions>
     <power>531</power>
     <gpxtpx:TrackPointExtension>
      <gpxtpx:hr>179</gpxtpx:hr>
      <gpxtpx:cad>90</gpxtpx:cad>
     </gpxtpx:TrackPointExtension>
    </extensions>
   </trkpt>
   <trkpt lat="40.1540930" lon="-76.9893660">
    <ele>127.0</ele>
    <time>2024-06-11T22:42:17Z</time>
    <extensions>
     <power>528</power>
     <gpxtpx:TrackPointExtension>
      <gpxtpx:hr>179</gpxtpx:hr>
      <gpxtpx:cad>90</gpxtpx:cad>
     </gpxtpx:TrackPointExtension>
    </extensions>
   </trkpt>
   <trkpt lat="40.1540890" lon="-76.9894300">
    <ele>127.0</ele>
    <time>2024-06-11T22:42:18Z</time>
    <extensions>
     <power>522</power>
     <gpxtpx:TrackPointExtension>
      <gpxtpx:hr>179</gpxtpx:hr>
      <gpxtpx:cad>90</gpxtpx:cad>
     </gpxtpx:TrackPointExtension>
    </extensions>
   </trkpt>
   <trkpt lat="40.1540840" lon="-76.9894930">
    <ele>127.0</ele>
    <time>2024-06-11T22:42:19Z</time>
    <extensions>
     <power>515</power>
     <gpxtpx:TrackPointExtension>
      <gpxtpx:hr>178</gpxtpx:hr>
      <gpxtpx:cad>90</gpxtpx:cad>
     </gpxtpx:TrackPointExtension>
    </extensions>
   </trkpt>
   <trkpt lat="40.1540800" lon="-76.9895550">
    <ele>127.0</ele>
    <time>2024-06-11T22:42:20Z</time>
    <extensions>
     <power>512</power>
     <gpxtpx:TrackPointExtension>
      <gpxtpx:hr>179</gpxtpx:hr>
      <gpxtpx:cad>90</gpxtpx:cad>
     </gpxtpx:TrackPointExtension>
    </extensions>
   </trkpt>
   <trkpt lat="40.1540760" lon="-76.9896140">
    <ele>127.0</ele>
    <time>2024-06-11T22:42:21Z</time>
    <extensions>
     <power>508</power>
     <gpxtpx:TrackPointExtension>
      <gpxtpx:hr>178</gpxtpx:hr>
      <gpxtpx:cad>90</gpxtpx:cad>
     </gpxtpx:TrackPointExtension>
    </extensions>
   </trkpt>
   <trkpt lat="40.1540710" lon="-76.9896870">
    <ele>127.0</ele>
    <time>2024-06-11T22:42:22Z</time>
    <extensions>
     <power>507</power>
     <gpxtpx:TrackPointExtension>
      <gpxtpx:hr>178</gpxtpx:hr>
      <gpxtpx:cad>90</gpxtpx:cad>
     </gpxtpx:TrackPointExtension>
    </extensions>
   </trkpt>
   <trkpt lat="40.1540670" lon="-76.9897490">
    <ele>127.0</ele>
    <time>2024-06-11T22:42:23Z</time>
    <extensions>
     <power>506</power>
     <gpxtpx:TrackPointExtension>
      <gpxtpx:hr>178</gpxtpx:hr>
      <gpxtpx:cad>90</gpxtpx:cad>
     </gpxtpx:TrackPointExtension>
    </extensions>
   </trkpt>
   <trkpt lat="40.1540620" lon="-76.9898230">
    <ele>127.0</ele>
    <time>2024-06-11T22:42:24Z</time>
    <extensions>
     <power>506</power>
     <gpxtpx:TrackPointExtension>
      <gpxtpx:hr>178</gpxtpx:hr>
      <gpxtpx:cad>90</gpxtpx:cad>
     </gpxtpx:TrackPointExtension>
    </extensions>
   </trkpt>
   <trkpt lat="40.1540590" lon="-76.9898730">
    <ele>127.0</ele>
    <time>2024-06-11T22:42:25Z</time>
    <extensions>
     <power>507</power>
     <gpxtpx:TrackPointExtension>
      <gpxtpx:hr>177</gpxtpx:hr>
      <gpxtpx:cad>90</gpxtpx:cad>
     </gpxtpx:TrackPointExtension>
    </extensions>
   </trkpt>
   <trkpt lat="40.1540540" lon="-76.9899420">
    <ele>127.0</ele>
    <time>2024-06-11T22:42:26Z</time>
    <extensions>
     <power>509</power>
     <gpxtpx:TrackPointExtension>
      <gpxtpx:hr>177</gpxtpx:hr>
      <gpxtpx:cad>90</gpxtpx:cad>
     </gpxtpx:TrackPointExtension>
    </extensions>
   </trkpt>
   <trkpt lat="40.1540510" lon="-76.9899890">
    <ele>127.0</ele>
    <time>2024-06-11T22:42:27Z</time>
    <extensions>
     <power>509</power>
     <gpxtpx:TrackPointExtension>
      <gpxtpx:hr>177</gpxtpx:hr>
      <gpxtpx:cad>90</gpxtpx:cad>
     </gpxtpx:TrackPointExtension>
    </extensions>
   </trkpt>
   <trkpt lat="40.1540470" lon="-76.9900540">
    <ele>127.0</ele>
    <time>2024-06-11T22:42:28Z</time>
    <extensions>
     <power>510</power>
     <gpxtpx:TrackPointExtension>
      <gpxtpx:hr>177</gpxtpx:hr>
      <gpxtpx:cad>90</gpxtpx:cad>
     </gpxtpx:TrackPointExtension>
    </extensions>
   </trkpt>
   <trkpt lat="40.1540440" lon="-76.9901030">
    <ele>127.0</ele>
    <time>2024-06-11T22:42:29Z</time>
    <extensions>
     <power>511</power>
     <gpxtpx:TrackPointExtension>
      <gpxtpx:hr>177</gpxtpx:hr>
      <gpxtpx:cad>90</gpxtpx:cad>
     </gpxtpx:TrackPointExtension>
    </extensions>
   </trkpt>
   <trkpt lat="40.1540390" lon="-76.9901730">
    <ele>127.0</ele>
    <time>2024-06-11T22:42:30Z</time>
    <extensions>
     <power>513</power>
     <gpxtpx:TrackPointExtension>
      <gpxtpx:hr>177</gpxtpx:hr>
      <gpxtpx:cad>90</gpxtpx:cad>
     </gpxtpx:TrackPointExtension>
    </extensions>
   </trkpt>
   <trkpt lat="40.1540350" lon="-76.9902060">
    <ele>127.0</ele>
    <time>2024-06-11T22:42:31Z</time>
    <extensions>
     <power>517</power>
     <gpxtpx:TrackPointExtension>
      <gpxtpx:hr>177</gpxtpx:hr>
      <gpxtpx:cad>90</gpxtpx:cad>
     </gpxtpx:TrackPointExtension>
    </extensions>
   </trkpt>
   <trkpt lat="40.1540220" lon="-76.9902790">
    <ele>127.0</ele>
    <time>2024-06-11T22:42:32Z</time>
    <extensions>
     <power>521</power>
     <gpxtpx:TrackPointExtension>
      <gpxtpx:hr>177</gpxtpx:hr>
      <gpxtpx:cad>91</gpxtpx:cad>
     </gpxtpx:TrackPointExtension>
    </extensions>
   </trkpt>
   <trkpt lat="40.1540140" lon="-76.9903080">
    <ele>127.0</ele>
    <time>2024-06-11T22:42:33Z</time>
    <extensions>
     <power>517</power>
     <gpxtpx:TrackPointExtension>
      <gpxtpx:hr>177</gpxtpx:hr>
      <gpxtpx:cad>91</gpxtpx:cad>
     </gpxtpx:TrackPointExtension>
    </extensions>
   </trkpt>
   <trkpt lat="40.1539860" lon="-76.9903800">
    <ele>127.0</ele>
    <time>2024-06-11T22:42:34Z</time>
    <extensions>
     <power>511</power>
     <gpxtpx:TrackPointExtension>
      <gpxtpx:hr>178</gpxtpx:hr>
      <gpxtpx:cad>92</gpxtpx:cad>
     </gpxtpx:TrackPointExtension>
    </extensions>
   </trkpt>
   <trkpt lat="40.1539750" lon="-76.9904040">
    <ele>127.0</ele>
    <time>2024-06-11T22:42:35Z</time>
    <extensions>
     <power>507</power>
     <gpxtpx:TrackPointExtension>
      <gpxtpx:hr>178</gpxtpx:hr>
      <gpxtpx:cad>92</gpxtpx:cad>
     </gpxtpx:TrackPointExtension>
    </extensions>
   </trkpt>
   <trkpt lat="40.1539390" lon="-76.9904580">
    <ele>127.0</ele>
    <time>2024-06-11T22:42:36Z</time>
    <extensions>
     <power>500</power>
     <gpxtpx:TrackPointExtension>
      <gpxtpx:hr>177</gpxtpx:hr>
      <gpxtpx:cad>92</gpxtpx:cad>
     </gpxtpx:TrackPointExtension>
    </extensions>
   </trkpt>
   <trkpt lat="40.1539240" lon="-76.9904780">
    <ele>127.0</ele>
    <time>2024-06-11T22:42:37Z</time>
    <extensions>
     <power>495</power>
     <gpxtpx:TrackPointExtension>
      <gpxtpx:hr>177</gpxtpx:hr>
      <gpxtpx:cad>92</gpxtpx:cad>
     </gpxtpx:TrackPointExtension>
    </extensions>
   </trkpt>
   <trkpt lat="40.1538790" lon="-76.9905240">
    <ele>127.0</ele>
    <time>2024-06-11T22:42:38Z</time>
    <extensions>
     <power>489</power>
     <gpxtpx:TrackPointExtension>
      <gpxtpx:hr>177</gpxtpx:hr>
      <gpxtpx:cad>91</gpxtpx:cad>
     </gpxtpx:TrackPointExtension>
    </extensions>
   </trkpt>
   <trkpt lat="40.1538520" lon="-76.9905440">
    <ele>127.0</ele>
    <time>2024-06-11T22:42:39Z</time>
    <extensions>
     <power>482</power>
     <gpxtpx:TrackPointExtension>
      <gpxtpx:hr>178</gpxtpx:hr>
      <gpxtpx:cad>91</gpxtpx:cad>
     </gpxtpx:TrackPointExtension>
    </extensions>
   </trkpt>
   <trkpt lat="40.1537960" lon="-76.9905750">
    <ele>127.0</ele>
    <time>2024-06-11T22:42:40Z</time>
    <extensions>
     <power>472</power>
     <gpxtpx:TrackPointExtension>
      <gpxtpx:hr>178</gpxtpx:hr>
      <gpxtpx:cad>93</gpxtpx:cad>
     </gpxtpx:TrackPointExtension>
    </extensions>
   </trkpt>
   <trkpt lat="40.1537590" lon="-76.9905880">
    <ele>127.0</ele>
    <time>2024-06-11T22:42:41Z</time>
    <extensions>
     <power>467</power>
     <gpxtpx:TrackPointExtension>
      <gpxtpx:hr>178</gpxtpx:hr>
      <gpxtpx:cad>93</gpxtpx:cad>
     </gpxtpx:TrackPointExtension>
    </extensions>
   </trkpt>
   <trkpt lat="40.1537020" lon="-76.9905980">
    <ele>127.0</ele>
    <time>2024-06-11T22:42:42Z</time>
    <extensions>
     <power>477</power>
     <gpxtpx:TrackPointExtension>
      <gpxtpx:hr>178</gpxtpx:hr>
      <gpxtpx:cad>92</gpxtpx:cad>
     </gpxtpx:TrackPointExtension>
    </extensions>
   </trkpt>
   <trkpt lat="40.1536520" lon="-76.9905960">
    <ele>127.0</ele>
    <time>2024-06-11T22:42:43Z</time>
    <extensions>
     <power>476</power>
     <gpxtpx:TrackPointExtension>
      <gpxtpx:hr>178</gpxtpx:hr>
      <gpxtpx:cad>93</gpxtpx:cad>
     </gpxtpx:TrackPointExtension>
    </extensions>
   </trkpt>
   <trkpt lat="40.1536090" lon="-76.9905860">
    <ele>127.0</ele>
    <time>2024-06-11T22:42:44Z</time>
    <extensions>
     <power>489</power>
     <gpxtpx:TrackPointExtension>
      <gpxtpx:hr>178</gpxtpx:hr>
      <gpxtpx:cad>93</gpxtpx:cad>
     </gpxtpx:TrackPointExtension>
    </extensions>
   </trkpt>
   <trkpt lat="40.1535600" lon="-76.9905670">
    <ele>127.0</ele>
    <time>2024-06-11T22:42:45Z</time>
    <extensions>
     <power>496</power>
     <gpxtpx:TrackPointExtension>
      <gpxtpx:hr>178</gpxtpx:hr>
      <gpxtpx:cad>93</gpxtpx:cad>
     </gpxtpx:TrackPointExtension>
    </extensions>
   </trkpt>
   <trkpt lat="40.1535310" lon="-76.9905500">
    <ele>127.0</ele>
    <time>2024-06-11T22:42:46Z</time>
    <extensions>
     <power>501</power>
     <gpxtpx:TrackPointExtension>
      <gpxtpx:hr>178</gpxtpx:hr>
      <gpxtpx:cad>93</gpxtpx:cad>
     </gpxtpx:TrackPointExtension>
    </extensions>
   </trkpt>
   <trkpt lat="40.1534830" lon="-76.9905130">
    <ele>127.0</ele>
    <time>2024-06-11T22:42:47Z</time>
    <extensions>
     <power>503</power>
     <gpxtpx:TrackPointExtension>
      <gpxtpx:hr>178</gpxtpx:hr>
      <gpxtpx:cad>93</gpxtpx:cad>
     </gpxtpx:TrackPointExtension>
    </extensions>
   </trkpt>
   <trkpt lat="40.1534590" lon="-76.9904870">
    <ele>127.0</ele>
    <time>2024-06-11T22:42:48Z</time>
    <extensions>
     <power>493</power>
     <gpxtpx:TrackPointExtension>
      <gpxtpx:hr>178</gpxtpx:hr>
      <gpxtpx:cad>93</gpxtpx:cad>
     </gpxtpx:TrackPointExtension>
    </extensions>
   </trkpt>
   <trkpt lat="40.1534200" lon="-76.9904370">
    <ele>127.0</ele>
    <time>2024-06-11T22:42:49Z</time>
    <extensions>
     <power>487</power>
     <gpxtpx:TrackPointExtension>
      <gpxtpx:hr>178</gpxtpx:hr>
      <gpxtpx:cad>92</gpxtpx:cad>
     </gpxtpx:TrackPointExtension>
    </extensions>
   </trkpt>
   <trkpt lat="40.1534000" lon="-76.9904020">
    <ele>127.0</ele>
    <time>2024-06-11T22:42:50Z</time>
    <extensions>
     <power>492</power>
     <gpxtpx:TrackPointExtension>
      <gpxtpx:hr>178</gpxtpx:hr>
      <gpxtpx:cad>92</gpxtpx:cad>
     </gpxtpx:TrackPointExtension>
    </extensions>
   </trkpt>
   <trkpt lat="40.1533690" lon="-76.9903360">
    <ele>127.0</ele>
    <time>2024-06-11T22:42:51Z</time>
    <extensions>
     <power>494</power>
     <gpxtpx:TrackPointExtension>
      <gpxtpx:hr>178</gpxtpx:hr>
      <gpxtpx:cad>91</gpxtpx:cad>
     </gpxtpx:TrackPointExtension>
    </extensions>
   </trkpt>
   <trkpt lat="40.1533580" lon="-76.9903020">
    <ele>127.0</ele>
    <time>2024-06-11T22:42:52Z</time>
    <extensions>
     <power>497</power>
     <gpxtpx:TrackPointExtension>
      <gpxtpx:hr>178</gpxtpx:hr>
      <gpxtpx:cad>91</gpxtpx:cad>
     </gpxtpx:TrackPointExtension>
    </extensions>
   </trkpt>
   <trkpt lat="40.1533390" lon="-76.9902150">
    <ele>127.0</ele>
    <time>2024-06-11T22:42:53Z</time>
    <extensions>
     <power>499</power>
     <gpxtpx:TrackPointExtension>
      <gpxtpx:hr>178</gpxtpx:hr>
      <gpxtpx:cad>91</gpxtpx:cad>
     </gpxtpx:TrackPointExtension>
    </extensions>
   </trkpt>
   <trkpt lat="40.1533370" lon="-76.9901850">
    <ele>127.0</ele>
    <time>2024-06-11T22:42:54Z</time>
    <extensions>
     <power>502</power>
     <gpxtpx:TrackPointExtension>
      <gpxtpx:hr>179</gpxtpx:hr>
      <gpxtpx:cad>91</gpxtpx:cad>
     </gpxtpx:TrackPointExtension>
    </extensions>
   </trkpt>
   <trkpt lat="40.1533360" lon="-76.9900960">
    <ele>127.0</ele>
    <time>2024-06-11T22:42:55Z</time>
    <extensions>
     <power>508</power>
     <gpxtpx:TrackPointExtension>
      <gpxtpx:hr>179</gpxtpx:hr>
      <gpxtpx:cad>91</gpxtpx:cad>
     </gpxtpx:TrackPointExtension>
    </extensions>
   </trkpt>
   <trkpt lat="40.1533390" lon="-76.9900480">
    <ele>127.0</ele>
    <time>2024-06-11T22:42:56Z</time>
    <extensions>
     <power>512</power>
     <gpxtpx:TrackPointExtension>
      <gpxtpx:hr>179</gpxtpx:hr>
      <gpxtpx:cad>91</gpxtpx:cad>
     </gpxtpx:TrackPointExtension>
    </extensions>
   </trkpt>
   <trkpt lat="40.1533440" lon="-76.9899640">
    <ele>127.0</ele>
    <time>2024-06-11T22:42:57Z</time>
    <extensions>
     <power>510</power>
     <gpxtpx:TrackPointExtension>
      <gpxtpx:hr>179</gpxtpx:hr>
      <gpxtpx:cad>91</gpxtpx:cad>
     </gpxtpx:TrackPointExtension>
    </extensions>
   </trkpt>
   <trkpt lat="40.1533470" lon="-76.9899170">
    <ele>127.0</ele>
    <time>2024-06-11T22:42:58Z</time>
    <extensions>
     <power>511</power>
     <gpxtpx:TrackPointExtension>
      <gpxtpx:hr>179</gpxtpx:hr>
      <gpxtpx:cad>91</gpxtpx:cad>
     </gpxtpx:TrackPointExtension>
    </extensions>
   </trkpt>
   <trkpt lat="40.1533530" lon="-76.9898360">
    <ele>127.0</ele>
    <time>2024-06-11T22:42:59Z</time>
    <extensions>
     <power>511</power>
     <gpxtpx:TrackPointExtension>
      <gpxtpx:hr>179</gpxtpx:hr>
      <gpxtpx:cad>91</gpxtpx:cad>
     </gpxtpx:TrackPointExtension>
    </extensions>
   </trkpt>
   <trkpt lat="40.1533560" lon="-76.9897830">
    <ele>127.0</ele>
    <time>2024-06-11T22:43:00Z</time>
    <extensions>
     <power>511</power>
     <gpxtpx:TrackPointExtension>
      <gpxtpx:hr>179</gpxtpx:hr>
      <gpxtpx:cad>90</gpxtpx:cad>
     </gpxtpx:TrackPointExtension>
    </extensions>
   </trkpt>
   <trkpt lat="40.1533610" lon="-76.9897050">
    <ele>127.0</ele>
    <time>2024-06-11T22:43:01Z</time>
    <extensions>
     <power>511</power>
     <gpxtpx:TrackPointExtension>
      <gpxtpx:hr>179</gpxtpx:hr>
      <gpxtpx:cad>90</gpxtpx:cad>
     </gpxtpx:TrackPointExtension>
    </extensions>
   </trkpt>
   <trkpt lat="40.1533640" lon="-76.9896640">
    <ele>127.0</ele>
    <time>2024-06-11T22:43:02Z</time>
    <extensions>
     <power>511</power>
     <gpxtpx:TrackPointExtension>
      <gpxtpx:hr>179</gpxtpx:hr>
      <gpxtpx:cad>89</gpxtpx:cad>
     </gpxtpx:TrackPointExtension>
    </extensions>
   </trkpt>
   <trkpt lat="40.1533700" lon="-76.9895790">
    <ele>127.0</ele>
    <time>2024-06-11T22:43:03Z</time>
    <extensions>
     <power>510</power>
     <gpxtpx:TrackPointExtension>
      <gpxtpx:hr>180</gpxtpx:hr>
      <gpxtpx:cad>89</gpxtpx:cad>
     </gpxtpx:TrackPointExtension>
    </extensions>
   </trkpt>
   <trkpt lat="40.1533720" lon="-76.9895440">
    <ele>127.0</ele>
    <time>2024-06-11T22:43:04Z</time>
    <extensions>
     <power>508</power>
     <gpxtpx:TrackPointExtension>
      <gpxtpx:hr>179</gpxtpx:hr>
      <gpxtpx:cad>89</gpxtpx:cad>
     </gpxtpx:TrackPointExtension>
    </extensions>
   </trkpt>
   <trkpt lat="40.1533780" lon="-76.9894610">
    <ele>127.0</ele>
    <time>2024-06-11T22:43:05Z</time>
    <extensions>
     <power>507</power>
     <gpxtpx:TrackPointExtension>
      <gpxtpx:hr>179</gpxtpx:hr>
      <gpxtpx:cad>89</gpxtpx:cad>
     </gpxtpx:TrackPointExtension>
    </extensions>
   </trkpt>
   <trkpt lat="40.1533800" lon="-76.9894220">
    <ele>127.0</ele>
    <time>2024-06-11T22:43:06Z</time>
    <extensions>
     <power>506</power>
     <gpxtpx:TrackPointExtension>
      <gpxtpx:hr>180</gpxtpx:hr>
      <gpxtpx:cad>89</gpxtpx:cad>
     </gpxtpx:TrackPointExtension>
    </extensions>
   </trkpt>
   <trkpt lat="40.1533870" lon="-76.9893260">
    <ele>127.0</ele>
    <time>2024-06-11T22:43:07Z</time>
    <extensions>
     <power>503</power>
     <gpxtpx:TrackPointExtension>
      <gpxtpx:hr>179</gpxtpx:hr>
      <gpxtpx:cad>90</gpxtpx:cad>
     </gpxtpx:TrackPointExtension>
    </extensions>
   </trkpt>
   <trkpt lat="40.1533890" lon="-76.9892890">
    <ele>127.0</ele>
    <time>2024-06-11T22:43:08Z</time>
    <extensions>
     <power>500</power>
     <gpxtpx:TrackPointExtension>
      <gpxtpx:hr>179</gpxtpx:hr>
      <gpxtpx:cad>90</gpxtpx:cad>
     </gpxtpx:TrackPointExtension>
    </extensions>
   </trkpt>
   <trkpt lat="40.1533940" lon="-76.9892090">
    <ele>127.0</ele>
    <time>2024-06-11T22:43:09Z</time>
    <extensions>
     <power>498</power>
     <gpxtpx:TrackPointExtension>
      <gpxtpx:hr>179</gpxtpx:hr>
      <gpxtpx:cad>90</gpxtpx:cad>
     </gpxtpx:TrackPointExtension>
    </extensions>
   </trkpt>
   <trkpt lat="40.1533990" lon="-76.9891640">
    <ele>127.0</ele>
    <time>2024-06-11T22:43:10Z</time>
    <extensions>
     <power>495</power>
     <gpxtpx:TrackPointExtension>
      <gpxtpx:hr>179</gpxtpx:hr>
      <gpxtpx:cad>90</gpxtpx:cad>
     </gpxtpx:TrackPointExtension>
    </extensions>
   </trkpt>
   <trkpt lat="40.1534100" lon="-76.9891030">
    <ele>127.0</ele>
    <time>2024-06-11T22:43:11Z</time>
    <extensions>
     <power>493</power>
     <gpxtpx:TrackPointExtension>
      <gpxtpx:hr>179</gpxtpx:hr>
      <gpxtpx:cad>90</gpxtpx:cad>
     </gpxtpx:TrackPointExtension>
    </extensions>
   </trkpt>
   <trkpt lat="40.1534240" lon="-76.9890550">
    <ele>127.0</ele>
    <time>2024-06-11T22:43:12Z</time>
    <extensions>
     <power>491</power>
     <gpxtpx:TrackPointExtension>
      <gpxtpx:hr>179</gpxtpx:hr>
      <gpxtpx:cad>92</gpxtpx:cad>
     </gpxtpx:TrackPointExtension>
    </extensions>
   </trkpt>
   <trkpt lat="40.1534480" lon="-76.9889970">
    <ele>127.0</ele>
    <time>2024-06-11T22:43:13Z</time>
    <extensions>
     <power>489</power>
     <gpxtpx:TrackPointExtension>
      <gpxtpx:hr>178</gpxtpx:hr>
      <gpxtpx:cad>92</gpxtpx:cad>
     </gpxtpx:TrackPointExtension>
    </extensions>
   </trkpt>
   <trkpt lat="40.1534710" lon="-76.9889540">
    <ele>127.0</ele>
    <time>2024-06-11T22:43:14Z</time>
    <extensions>
     <power>489</power>
     <gpxtpx:TrackPointExtension>
      <gpxtpx:hr>178</gpxtpx:hr>
      <gpxtpx:cad>92</gpxtpx:cad>
     </gpxtpx:TrackPointExtension>
    </extensions>
   </trkpt>
   <trkpt lat="40.1535070" lon="-76.9889020">
    <ele>127.0</ele>
    <time>2024-06-11T22:43:15Z</time>
    <extensions>
     <power>491</power>
     <gpxtpx:TrackPointExtension>
      <gpxtpx:hr>178</gpxtpx:hr>
      <gpxtpx:cad>92</gpxtpx:cad>
     </gpxtpx:TrackPointExtension>
    </extensions>
   </trkpt>
   <trkpt lat="40.1535350" lon="-76.9888720">
    <ele>127.0</ele>
    <time>2024-06-11T22:43:16Z</time>
    <extensions>
     <power>494</power>
     <gpxtpx:TrackPointExtension>
      <gpxtpx:hr>178</gpxtpx:hr>
      <gpxtpx:cad>92</gpxtpx:cad>
     </gpxtpx:TrackPointExtension>
    </extensions>
   </trkpt>
   <trkpt lat="40.1535770" lon="-76.9888360">
    <ele>127.0</ele>
    <time>2024-06-11T22:43:17Z</time>
    <extensions>
     <power>498</power>
     <gpxtpx:TrackPointExtension>
      <gpxtpx:hr>178</gpxtpx:hr>
      <gpxtpx:cad>92</gpxtpx:cad>
     </gpxtpx:TrackPointExtension>
    </extensions>
   </trkpt>
   <trkpt lat="40.1536150" lon="-76.9888130">
    <ele>127.0</ele>
    <time>2024-06-11T22:43:18Z</time>
    <extensions>
     <power>504</power>
     <gpxtpx:TrackPointExtension>
      <gpxtpx:hr>178</gpxtpx:hr>
      <gpxtpx:cad>92</gpxtpx:cad>
     </gpxtpx:TrackPointExtension>
    </extensions>
   </trkpt>
   <trkpt lat="40.1536570" lon="-76.9887940">
    <ele>127.0</ele>
    <time>2024-06-11T22:43:19Z</time>
    <extensions>
     <power>511</power>
     <gpxtpx:TrackPointExtension>
      <gpxtpx:hr>178</gpxtpx:hr>
      <gpxtpx:cad>91</gpxtpx:cad>
     </gpxtpx:TrackPointExtension>
    </extensions>
   </trkpt>
   <trkpt lat="40.1537060" lon="-76.9887820">
    <ele>127.0</ele>
    <time>2024-06-11T22:43:20Z</time>
    <extensions>
     <power>516</power>
     <gpxtpx:TrackPointExtension>
      <gpxtpx:hr>178</gpxtpx:hr>
      <gpxtpx:cad>91</gpxtpx:cad>
     </gpxtpx:TrackPointExtension>
    </extensions>
   </trkpt>
   <trkpt lat="40.1537540" lon="-76.9887790">
    <ele>127.0</ele>
    <time>2024-06-11T22:43:21Z</time>
    <extensions>
     <power>520</power>
     <gpxtpx:TrackPointExtension>
      <gpxtpx:hr>179</gpxtpx:hr>
      <gpxtpx:cad>90</gpxtpx:cad>
     </gpxtpx:TrackPointExtension>
    </extensions>
   </trkpt>
   <trkpt lat="40.1538030" lon="-76.9887850">
    <ele>127.0</ele>
    <time>2024-06-11T22:43:22Z</time>
    <extensions>
     <power>527</power>
     <gpxtpx:TrackPointExtension>
      <gpxtpx:hr>178</gpxtpx:hr>
      <gpxtpx:cad>90</gpxtpx:cad>
     </gpxtpx:TrackPointExtension>
    </extensions>
   </trkpt>
   <trkpt lat="40.1538490" lon="-76.9887990">
    <ele>127.0</ele>
    <time>2024-06-11T22:43:23Z</time>
    <extensions>
     <power>529</power>
     <gpxtpx:TrackPointExtension>
      <gpxtpx:hr>178</gpxtpx:hr>
      <gpxtpx:cad>90</gpxtpx:cad>
     </gpxtpx:TrackPointExtension>
    </extensions>
   </trkpt>
   <trkpt lat="40.1538940" lon="-76.9888220">
    <ele>127.0</ele>
    <time>2024-06-11T22:43:24Z</time>
    <extensions>
     <power>538</power>
     <gpxtpx:TrackPointExtension>
      <gpxtpx:hr>180</gpxtpx:hr>
      <gpxtpx:cad>90</gpxtpx:cad>
     </gpxtpx:TrackPointExtension>
    </extensions>
   </trkpt>
   <trkpt lat="40.1539340" lon="-76.9888490">
    <ele>127.0</ele>
    <time>2024-06-11T22:43:25Z</time>
    <extensions>
     <power>548</power>
     <gpxtpx:TrackPointExtension>
      <gpxtpx:hr>180</gpxtpx:hr>
      <gpxtpx:cad>92</gpxtpx:cad>
     </gpxtpx:TrackPointExtension>
    </extensions>
   </trkpt>
   <trkpt lat="40.1539740" lon="-76.9888880">
    <ele>127.0</ele>
    <time>2024-06-11T22:43:26Z</time>
    <extensions>
     <power>556</power>
     <gpxtpx:TrackPointExtension>
      <gpxtpx:hr>180</gpxtpx:hr>
      <gpxtpx:cad>92</gpxtpx:cad>
     </gpxtpx:TrackPointExtension>
    </extensions>
   </trkpt>
   <trkpt lat="40.1540040" lon="-76.9889260">
    <ele>127.0</ele>
    <time>2024-06-11T22:43:27Z</time>
    <extensions>
     <power>562</power>
     <gpxtpx:TrackPointExtension>
      <gpxtpx:hr>179</gpxtpx:hr>
      <gpxtpx:cad>92</gpxtpx:cad>
     </gpxtpx:TrackPointExtension>
    </extensions>
   </trkpt>
   <trkpt lat="40.1540460" lon="-76.9889960">
    <ele>127.0</ele>
    <time>2024-06-11T22:43:28Z</time>
    <extensions>
     <power>563</power>
     <gpxtpx:TrackPointExtension>
      <gpxtpx:hr>179</gpxtpx:hr>
      <gpxtpx:cad>92</gpxtpx:cad>
     </gpxtpx:TrackPointExtension>
    </extensions>
   </trkpt>
   <trkpt lat="40.1540650" lon="-76.9890400">
    <ele>127.0</ele>
    <time>2024-06-11T22:43:29Z</time>
    <extensions>
     <power>563</power>
     <gpxtpx:TrackPointExtension>
      <gpxtpx:hr>179</gpxtpx:hr>
      <gpxtpx:cad>93</gpxtpx:cad>
     </gpxtpx:TrackPointExtension>
    </extensions>
   </trkpt>
   <trkpt lat="40.1540870" lon="-76.9891190">
    <ele>127.0</ele>
    <time>2024-06-11T22:43:30Z</time>
    <extensions>
     <power>562</power>
     <gpxtpx:TrackPointExtension>
      <gpxtpx:hr>179</gpxtpx:hr>
      <gpxtpx:cad>93</gpxtpx:cad>
     </gpxtpx:TrackPointExtension>
    </extensions>
   </trkpt>
   <trkpt lat="40.1540930" lon="-76.9891540">
    <ele>127.0</ele>
    <time>2024-06-11T22:43:31Z</time>
    <extensions>
     <power>562</power>
     <gpxtpx:TrackPointExtension>
      <gpxtpx:hr>179</gpxtpx:hr>
      <gpxtpx:cad>93</gpxtpx:cad>
     </gpxtpx:TrackPointExtension>
    </extensions>
   </trkpt>
   <trkpt lat="40.1540990" lon="-76.9892240">
    <ele>127.0</ele>
    <time>2024-06-11T22:43:32Z</time>
    <extensions>
     <power>563</power>
     <gpxtpx:TrackPointExtension>
      <gpxtpx:hr>178</gpxtpx:hr>
      <gpxtpx:cad>93</gpxtpx:cad>
     </gpxtpx:TrackPointExtension>
    </extensions>
   </trkpt>
   <trkpt lat="40.1540980" lon="-76.9892810">
    <ele>127.0</ele>
    <time>2024-06-11T22:43:33Z</time>
    <extensions>
     <power>558</power>
     <gpxtpx:TrackPointExtension>
      <gpxtpx:hr>179</gpxtpx:hr>
      <gpxtpx:cad>93</gpxtpx:cad>
     </gpxtpx:TrackPointExtension>
    </extensions>
   </trkpt>
   <trkpt lat="40.1540930" lon="-76.9893630">
    <ele>127.0</ele>
    <time>2024-06-11T22:43:34Z</time>
    <extensions>
     <power>551</power>
     <gpxtpx:TrackPointExtension>
      <gpxtpx:hr>179</gpxtpx:hr>
      <gpxtpx:cad>93</gpxtpx:cad>
     </gpxtpx:TrackPointExtension>
    </extensions>
   </trkpt>
   <trkpt lat="40.1540880" lon="-76.9894330">
    <ele>127.0</ele>
    <time>2024-06-11T22:43:35Z</time>
    <extensions>
     <power>550</power>
     <gpxtpx:TrackPointExtension>
      <gpxtpx:hr>179</gpxtpx:hr>
      <gpxtpx:cad>92</gpxtpx:cad>
     </gpxtpx:TrackPointExtension>
    </extensions>
   </trkpt>
   <trkpt lat="40.1540840" lon="-76.9895010">
    <ele>127.0</ele>
    <time>2024-06-11T22:43:36Z</time>
    <extensions>
     <power>537</power>
     <gpxtpx:TrackPointExtension>
      <gpxtpx:hr>179</gpxtpx:hr>
      <gpxtpx:cad>92</gpxtpx:cad>
     </gpxtpx:TrackPointExtension>
    </extensions>
   </trkpt>
   <trkpt lat="40.1540790" lon="-76.9895670">
    <ele>127.0</ele>
    <time>2024-06-11T22:43:37Z</time>
    <extensions>
     <power>539</power>
     <gpxtpx:TrackPointExtension>
      <gpxtpx:hr>179</gpxtpx:hr>
      <gpxtpx:cad>92</gpxtpx:cad>
     </gpxtpx:TrackPointExtension>
    </extensions>
   </trkpt>
   <trkpt lat="40.1540760" lon="-76.9896250">
    <ele>127.0</ele>
    <time>2024-06-11T22:43:38Z</time>
    <extensions>
     <power>536</power>
     <gpxtpx:TrackPointExtension>
      <gpxtpx:hr>179</gpxtpx:hr>
      <gpxtpx:cad>93</gpxtpx:cad>
     </gpxtpx:TrackPointExtension>
    </extensions>
   </trkpt>
   <trkpt lat="40.1540700" lon="-76.9897010">
    <ele>127.0</ele>
    <time>2024-06-11T22:43:39Z</time>
    <extensions>
     <power>528</power>
     <gpxtpx:TrackPointExtension>
      <gpxtpx:hr>179</gpxtpx:hr>
      <gpxtpx:cad>93</gpxtpx:cad>
     </gpxtpx:TrackPointExtension>
    </extensions>
   </trkpt>
   <trkpt lat="40.1540670" lon="-76.9897470">
    <ele>127.0</ele>
    <time>2024-06-11T22:43:40Z</time>
    <extensions>
     <power>529</power>
     <gpxtpx:TrackPointExtension>
      <gpxtpx:hr>178</gpxtpx:hr>
      <gpxtpx:cad>93</gpxtpx:cad>
     </gpxtpx:TrackPointExtension>
    </extensions>
   </trkpt>
   <trkpt lat="40.1540620" lon="-76.9898310">
    <ele>127.0</ele>
    <time>2024-06-11T22:43:41Z</time>
    <extensions>
     <power>532</power>
     <gpxtpx:TrackPointExtension>
      <gpxtpx:hr>178</gpxtpx:hr>
      <gpxtpx:cad>93</gpxtpx:cad>
     </gpxtpx:TrackPointExtension>
    </extensions>
   </trkpt>
   <trkpt lat="40.1540600" lon="-76.9898660">
    <ele>127.0</ele>
    <time>2024-06-11T22:43:42Z</time>
    <extensions>
     <power>534</power>
     <gpxtpx:TrackPointExtension>
      <gpxtpx:hr>179</gpxtpx:hr>
      <gpxtpx:cad>93</gpxtpx:cad>
     </gpxtpx:TrackPointExtension>
    </extensions>
   </trkpt>
   <trkpt lat="40.1540530" lon="-76.9899590">
    <ele>127.0</ele>
    <time>2024-06-11T22:43:43Z</time>
    <extensions>
     <power>539</power>
     <gpxtpx:TrackPointExtension>
      <gpxtpx:hr>179</gpxtpx:hr>
      <gpxtpx:cad>93</gpxtpx:cad>
     </gpxtpx:TrackPointExtension>
    </extensions>
   </trkpt>
   <trkpt lat="40.1540510" lon="-76.9899930">
    <ele>127.0</ele>
    <time>2024-06-11T22:43:44Z</time>
    <extensions>
     <power>539</power>
     <gpxtpx:TrackPointExtension>
      <gpxtpx:hr>179</gpxtpx:hr>
      <gpxtpx:cad>93</gpxtpx:cad>
     </gpxtpx:TrackPointExtension>
    </extensions>
   </trkpt>
   <trkpt lat="40.1540450" lon="-76.9900880">
    <ele>127.0</ele>
    <time>2024-06-11T22:43:45Z</time>
    <extensions>
     <power>531</power>
     <gpxtpx:TrackPointExtension>
      <gpxtpx:hr>178</gpxtpx:hr>
      <gpxtpx:cad>93</gpxtpx:cad>
     </gpxtpx:TrackPointExtension>
    </extensions>
   </trkpt>
   <trkpt lat="40.1540420" lon="-76.9901260">
    <ele>127.0</ele>
    <time>2024-06-11T22:43:46Z</time>
    <extensions>
     <power>528</power>
     <gpxtpx:TrackPointExtension>
      <gpxtpx:hr>178</gpxtpx:hr>
      <gpxtpx:cad>93</gpxtpx:cad>
     </gpxtpx:TrackPointExtension>
    </extensions>
   </trkpt>
   <trkpt lat="40.1540360" lon="-76.9902020">
    <ele>127.0</ele>
    <time>2024-06-11T22:43:47Z</time>
    <extensions>
     <power>522</power>
     <gpxtpx:TrackPointExtension>
      <gpxtpx:hr>178</gpxtpx:hr>
      <gpxtpx:cad>93</gpxtpx:cad>
     </gpxtpx:TrackPointExtension>
    </extensions>
   </trkpt>
   <trkpt lat="40.1540300" lon="-76.9902470">
    <ele>127.0</ele>
    <time>2024-06-11T22:43:48Z</time>
    <extensions>
     <power>517</power>
     <gpxtpx:TrackPointExtension>
      <gpxtpx:hr>178</gpxtpx:hr>
      <gpxtpx:cad>93</gpxtpx:cad>
     </gpxtpx:TrackPointExtension>
    </extensions>
   </trkpt>
   <trkpt lat="40.1540130" lon="-76.9903130">
    <ele>127.0</ele>
    <time>2024-06-11T22:43:49Z</time>
    <extensions>
     <power>514</power>
     <gpxtpx:TrackPointExtension>
      <gpxtpx:hr>178</gpxtpx:hr>
      <gpxtpx:cad>93</gpxtpx:cad>
     </gpxtpx:TrackPointExtension>
    </extensions>
   </trkpt>
   <trkpt lat="40.1539980" lon="-76.9903540">
    <ele>127.0</ele>
    <time>2024-06-11T22:43:50Z</time>
    <extensions>
     <power>510</power>
     <gpxtpx:TrackPointExtension>
      <gpxtpx:hr>178</gpxtpx:hr>
      <gpxtpx:cad>94</gpxtpx:cad>
     </gpxtpx:TrackPointExtension>
    </extensions>
   </trkpt>
   <trkpt lat="40.1539780" lon="-76.9903970">
    <ele>127.0</ele>
    <time>2024-06-11T22:43:51Z</time>
    <extensions>
     <power>509</power>
     <gpxtpx:TrackPointExtension>
      <gpxtpx:hr>179</gpxtpx:hr>
      <gpxtpx:cad>94</gpxtpx:cad>
     </gpxtpx:TrackPointExtension>
    </extensions>
   </trkpt>
   <trkpt lat="40.1539520" lon="-76.9904410">
    <ele>127.0</ele>
    <time>2024-06-11T22:43:52Z</time>
    <extensions>
     <power>505</power>
     <gpxtpx:TrackPointExtension>
      <gpxtpx:hr>178</gpxtpx:hr>
      <gpxtpx:cad>94</gpxtpx:cad>
     </gpxtpx:TrackPointExtension>
    </extensions>
   </trkpt>
   <trkpt lat="40.1539290" lon="-76.9904720">
    <ele>127.0</ele>
    <time>2024-06-11T22:43:53Z</time>
    <extensions>
     <power>503</power>
     <gpxtpx:TrackPointExtension>
      <gpxtpx:hr>179</gpxtpx:hr>
      <gpxtpx:cad>94</gpxtpx:cad>
     </gpxtpx:TrackPointExtension>
    </extensions>
   </trkpt>
   <trkpt lat="40.1538820" lon="-76.9905210">
    <ele>127.0</ele>
    <time>2024-06-11T22:43:54Z</time>
    <extensions>
     <power>500</power>
     <gpxtpx:TrackPointExtension>
      <gpxtpx:hr>178</gpxtpx:hr>
      <gpxtpx:cad>94</gpxtpx:cad>
     </gpxtpx:TrackPointExtension>
    </extensions>
   </trkpt>
   <trkpt lat="40.1538480" lon="-76.9905470">
    <ele>127.0</ele>
    <time>2024-06-11T22:43:55Z</time>
    <extensions>
     <power>498</power>
     <gpxtpx:TrackPointExtension>
      <gpxtpx:hr>178</gpxtpx:hr>
      <gpxtpx:cad>94</gpxtpx:cad>
     </gpxtpx:TrackPointExtension>
    </extensions>
   </trkpt>
   <trkpt lat="40.1537980" lon="-76.9905750">
    <ele>127.0</ele>
    <time>2024-06-11T22:43:56Z</time>
    <extensions>
     <power>497</power>
     <gpxtpx:TrackPointExtension>
      <gpxtpx:hr>178</gpxtpx:hr>
      <gpxtpx:cad>94</gpxtpx:cad>
     </gpxtpx:TrackPointExtension>
    </extensions>
   </trkpt>
   <trkpt lat="40.1537670" lon="-76.9905850">
    <ele>127.0</ele>
    <time>2024-06-11T22:43:57Z</time>
    <extensions>
     <power>498</power>
     <gpxtpx:TrackPointExtension>
      <gpxtpx:hr>178</gpxtpx:hr>
      <gpxtpx:cad>94</gpxtpx:cad>
     </gpxtpx:TrackPointExtension>
    </extensions>
   </trkpt>
   <trkpt lat="40.1537120" lon="-76.9905960">
    <ele>127.0</ele>
    <time>2024-06-11T22:43:58Z</time>
    <extensions>
     <power>499</power>
     <gpxtpx:TrackPointExtension>
      <gpxtpx:hr>178</gpxtpx:hr>
      <gpxtpx:cad>94</gpxtpx:cad>
     </gpxtpx:TrackPointExtension>
    </extensions>
   </trkpt>
   <trkpt lat="40.1536780" lon="-76.9905970">
    <ele>127.0</ele>
    <time>2024-06-11T22:43:59Z</time>
    <extensions>
     <power>494</power>
     <gpxtpx:TrackPointExtension>
      <gpxtpx:hr>178</gpxtpx:hr>
      <gpxtpx:cad>94</gpxtpx:cad>
     </gpxtpx:TrackPointExtension>
    </extensions>
   </trkpt>
   <trkpt lat="40.1536190" lon="-76.9905890">
    <ele>127.0</ele>
    <time>2024-06-11T22:44:00Z</time>
    <extensions>
     <power>487</power>
     <gpxtpx:TrackPointExtension>
      <gpxtpx:hr>179</gpxtpx:hr>
      <gpxtpx:cad>92</gpxtpx:cad>
     </gpxtpx:TrackPointExtension>
    </extensions>
   </trkpt>
   <trkpt lat="40.1535830" lon="-76.9905770">
    <ele>127.0</ele>
    <time>2024-06-11T22:44:01Z</time>
    <extensions>
     <power>485</power>
     <gpxtpx:TrackPointExtension>
      <gpxtpx:hr>179</gpxtpx:hr>
      <gpxtpx:cad>92</gpxtpx:cad>
     </gpxtpx:TrackPointExtension>
    </extensions>
   </trkpt>
   <trkpt lat="40.1535420" lon="-76.9905560">
    <ele>127.0</ele>
    <time>2024-06-11T22:44:02Z</time>
    <extensions>
     <power>479</power>
     <gpxtpx:TrackPointExtension>
      <gpxtpx:hr>178</gpxtpx:hr>
      <gpxtpx:cad>92</gpxtpx:cad>
     </gpxtpx:TrackPointExtension>
    </extensions>
   </trkpt>
   <trkpt lat="40.1535040" lon="-76.9905300">
    <ele>127.0</ele>
    <time>2024-06-11T22:44:03Z</time>
    <extensions>
     <power>475</power>
     <gpxtpx:TrackPointExtension>
      <gpxtpx:hr>178</gpxtpx:hr>
      <gpxtpx:cad>92</gpxtpx:cad>
     </gpxtpx:TrackPointExtension>
    </extensions>
   </trkpt>
   <trkpt lat="40.1534630" lon="-76.9904920">
    <ele>127.0</ele>
    <time>2024-06-11T22:44:04Z</time>
    <extensions>
     <power>473</power>
     <gpxtpx:TrackPointExtension>
      <gpxtpx:hr>178</gpxtpx:hr>
      <gpxtpx:cad>92</gpxtpx:cad>
     </gpxtpx:TrackPointExtension>
    </extensions>
   </trkpt>
   <trkpt lat="40.1534350" lon="-76.9904590">
    <ele>127.0</ele>
    <time>2024-06-11T22:44:05Z</time>
    <extensions>
     <power>471</power>
     <gpxtpx:TrackPointExtension>
      <gpxtpx:hr>178</gpxtpx:hr>
      <gpxtpx:cad>92</gpxtpx:cad>
     </gpxtpx:TrackPointExtension>
    </extensions>
   </trkpt>
   <trkpt lat="40.1534000" lon="-76.9904030">
    <ele>127.0</ele>
    <time>2024-06-11T22:44:06Z</time>
    <extensions>
     <power>470</power>
     <gpxtpx:TrackPointExtension>
      <gpxtpx:hr>179</gpxtpx:hr>
      <gpxtpx:cad>91</gpxtpx:cad>
     </gpxtpx:TrackPointExtension>
    </extensions>
   </trkpt>
   <trkpt lat="40.1533760" lon="-76.9903520">
    <ele>127.0</ele>
    <time>2024-06-11T22:44:07Z</time>
    <extensions>
     <power>471</power>
     <gpxtpx:TrackPointExtension>
      <gpxtpx:hr>178</gpxtpx:hr>
      <gpxtpx:cad>91</gpxtpx:cad>
     </gpxtpx:TrackPointExtension>
    </extensions>
   </trkpt>
   <trkpt lat="40.1533560" lon="-76.9902940">
    <ele>127.0</ele>
    <time>2024-06-11T22:44:08Z</time>
    <extensions>
     <power>471</power>
     <gpxtpx:TrackPointExtension>
      <gpxtpx:hr>179</gpxtpx:hr>
      <gpxtpx:cad>91</gpxtpx:cad>
     </gpxtpx:TrackPointExtension>
    </extensions>
   </trkpt>
   <trkpt lat="40.1533420" lon="-76.9902300">
    <ele>127.0</ele>
    <time>2024-06-11T22:44:09Z</time>
    <extensions>
     <power>472</power>
     <gpxtpx:TrackPointExtension>
      <gpxtpx:hr>178</gpxtpx:hr>
      <gpxtpx:cad>91</gpxtpx:cad>
     </gpxtpx:TrackPointExtension>
    </extensions>
   </trkpt>
   <trkpt lat="40.1533360" lon="-76.9901700">
    <ele>127.0</ele>
    <time>2024-06-11T22:44:10Z</time>
    <extensions>
     <power>476</power>
     <gpxtpx:TrackPointExtension>
      <gpxtpx:hr>178</gpxtpx:hr>
      <gpxtpx:cad>91</gpxtpx:cad>
     </gpxtpx:TrackPointExtension>
    </extensions>
   </trkpt>
   <trkpt lat="40.1533360" lon="-76.9900910">
    <ele>127.0</ele>
    <time>2024-06-11T22:44:11Z</time>
    <extensions>
     <power>480</power>
     <gpxtpx:TrackPointExtension>
      <gpxtpx:hr>178</gpxtpx:hr>
      <gpxtpx:cad>91</gpxtpx:cad>
     </gpxtpx:TrackPointExtension>
    </extensions>
   </trkpt>
   <trkpt lat="40.1533390" lon="-76.9900420">
    <ele>127.0</ele>
    <time>2024-06-11T22:44:12Z</time>
    <extensions>
     <power>484</power>
     <gpxtpx:TrackPointExtension>
      <gpxtpx:hr>177</gpxtpx:hr>
      <gpxtpx:cad>93</gpxtpx:cad>
     </gpxtpx:TrackPointExtension>
    </extensions>
   </trkpt>
   <trkpt lat="40.1533450" lon="-76.9899550">
    <ele>127.0</ele>
    <time>2024-06-11T22:44:13Z</time>
    <extensions>
     <power>488</power>
     <gpxtpx:TrackPointExtension>
      <gpxtpx:hr>177</gpxtpx:hr>
      <gpxtpx:cad>93</gpxtpx:cad>
     </gpxtpx:TrackPointExtension>
    </extensions>
   </trkpt>
   <trkpt lat="40.1533490" lon="-76.9898990">
    <ele>127.0</ele>
    <time>2024-06-11T22:44:14Z</time>
    <extensions>
     <power>491</power>
     <gpxtpx:TrackPointExtension>
      <gpxtpx:hr>178</gpxtpx:hr>
      <gpxtpx:cad>93</gpxtpx:cad>
     </gpxtpx:TrackPointExtension>
    </extensions>
   </trkpt>
   <trkpt lat="40.1533540" lon="-76.9898190">
    <ele>127.0</ele>
    <time>2024-06-11T22:44:15Z</time>
    <extensions>
     <power>491</power>
     <gpxtpx:TrackPointExtension>
      <gpxtpx:hr>178</gpxtpx:hr>
      <gpxtpx:cad>93</gpxtpx:cad>
     </gpxtpx:TrackPointExtension>
    </extensions>
   </trkpt>
   <trkpt lat="40.1533600" lon="-76.9897320">
    <ele>127.0</ele>
    <time>2024-06-11T22:44:16Z</time>
    <extensions>
     <power>494</power>
     <gpxtpx:TrackPointExtension>
      <gpxtpx:hr>177</gpxtpx:hr>
      <gpxtpx:cad>93</gpxtpx:cad>
     </gpxtpx:TrackPointExtension>
    </extensions>
   </trkpt>
   <trkpt lat="40.1533630" lon="-76.9896820">
    <ele>127.0</ele>
    <time>2024-06-11T22:44:17Z</time>
    <extensions>
     <power>495</power>
     <gpxtpx:TrackPointExtension>
      <gpxtpx:hr>178</gpxtpx:hr>
      <gpxtpx:cad>94</gpxtpx:cad>
     </gpxtpx:TrackPointExtension>
    </extensions>
   </trkpt>
   <trkpt lat="40.1533690" lon="-76.9895990">
    <ele>127.0</ele>
    <time>2024-06-11T22:44:18Z</time>
    <extensions>
     <power>494</power>
     <gpxtpx:TrackPointExtension>
      <gpxtpx:hr>178</gpxtpx:hr>
      <gpxtpx:cad>96</gpxtpx:cad>
     </gpxtpx:TrackPointExtension>
    </extensions>
   </trkpt>
   <trkpt lat="40.1533740" lon="-76.9895100">
    <ele>127.0</ele>
    <time>2024-06-11T22:44:19Z</time>
    <extensions>
     <power>494</power>
     <gpxtpx:TrackPointExtension>
      <gpxtpx:hr>177</gpxtpx:hr>
      <gpxtpx:cad>96</gpxtpx:cad>
     </gpxtpx:TrackPointExtension>
    </extensions>
   </trkpt>
   <trkpt lat="40.1533780" lon="-76.9894630">
    <ele>127.0</ele>
    <time>2024-06-11T22:44:20Z</time>
    <extensions>
     <power>494</power>
     <gpxtpx:TrackPointExtension>
      <gpxtpx:hr>177</gpxtpx:hr>
      <gpxtpx:cad>97</gpxtpx:cad>
     </gpxtpx:TrackPointExtension>
    </extensions>
   </trkpt>
   <trkpt lat="40.1533830" lon="-76.9893770">
    <ele>127.0</ele>
    <time>2024-06-11T22:44:21Z</time>
    <extensions>
     <power>496</power>
     <gpxtpx:TrackPointExtension>
      <gpxtpx:hr>177</gpxtpx:hr>
      <gpxtpx:cad>98</gpxtpx:cad>
     </gpxtpx:TrackPointExtension>
    </extensions>
   </trkpt>
   <trkpt lat="40.1533890" lon="-76.9892850">
    <ele>127.0</ele>
    <time>2024-06-11T22:44:22Z</time>
    <extensions>
     <power>495</power>
     <gpxtpx:TrackPointExtension>
      <gpxtpx:hr>177</gpxtpx:hr>
      <gpxtpx:cad>100</gpxtpx:cad>
     </gpxtpx:TrackPointExtension>
    </extensions>
   </trkpt>
   <trkpt lat="40.1533920" lon="-76.9892420">
    <ele>127.0</ele>
    <time>2024-06-11T22:44:23Z</time>
    <extensions>
     <power>504</power>
     <gpxtpx:TrackPointExtension>
      <gpxtpx:hr>177</gpxtpx:hr>
      <gpxtpx:cad>101</gpxtpx:cad>
     </gpxtpx:TrackPointExtension>
    </extensions>
   </trkpt>
  </trkseg>
 </trk>
</gpx>
